{
"type": "FeatureCollection",
"name": "10k",
"crs": { "type": "name", "properties": { "name": "urn:ogc:def:crs:OGC:1.3:CRS84" } },
"features": [
{ "type": "Feature", "properties": { "fid": 1 }, "geometry": { "type": "LineString", "coordinates": [ [ -73.11927660313097, 7.06003097904411 ], [ -73.119245857672965, 7.060038400361559 ], [ -73.119231545132166, 7.059997583115584 ], [ -73.119122875840915, 7.059630757995905 ], [ -73.119034880219729, 7.059330724733277 ], [ -73.118976569868323, 7.059126108409293 ], [ -73.118850407471697, 7.058682949738698 ], [ -73.118816481449059, 7.058559967906667 ], [ -73.118793157308517, 7.058480983885233 ], [ -73.118784675802871, 7.058458984979938 ], [ -73.11876824288565, 7.058436455980532 ], [ -73.118750219686135, 7.058419492969217 ], [ -73.118734051815977, 7.058405445475477 ], [ -73.11871364319299, 7.058398819299177 ], [ -73.118686078299604, 7.05839775911097 ], [ -73.118668055100073, 7.058401999863799 ], [ -73.118635189265646, 7.058422673533839 ], [ -73.118612395219202, 7.058452358803639 ], [ -73.118599142866614, 7.058465081062125 ], [ -73.118581119667084, 7.058471442191369 ], [ -73.118501605551558, 7.058482044073439 ], [ -73.118428982659367, 7.05849688670834 ], [ -73.118286917439605, 7.05853399329559 ], [ -73.118122058173384, 7.058581701764913 ], [ -73.117982643424142, 7.058620398634474 ], [ -73.117823615193061, 7.058666516821486 ], [ -73.117688706243698, 7.058704948643997 ], [ -73.117183261515947, 7.058854965275311 ], [ -73.116696635128861, 7.059008692565349 ], [ -73.116469754852531, 7.05907972517523 ], [ -73.116289522857315, 7.059133794773795 ], [ -73.116161240084239, 7.059166660608218 ], [ -73.116128904343952, 7.059176732396185 ], [ -73.116116712179561, 7.059186804184153 ], [ -73.11611565199135, 7.059198466254433 ], [ -73.116119362650082, 7.059208538042401 ], [ -73.116141626602428, 7.059220200112679 ], [ -73.116173432248644, 7.059236633029891 ], [ -73.11619569620099, 7.059261017358656 ], [ -73.116204177706649, 7.059286991969731 ], [ -73.116209478647676, 7.059298123945907 ], [ -73.116222731000263, 7.059306605451564 ], [ -73.116234923164654, 7.059305545263356 ], [ -73.116247115329031, 7.059296003569492 ], [ -73.116266198716758, 7.059271619240727 ], [ -73.116292173327835, 7.059245114535548 ], [ -73.116336171138443, 7.059215959359851 ], [ -73.116372747631587, 7.059202176913158 ], [ -73.116531245768556, 7.059142806373557 ], [ -73.116608109413576, 7.059117361856584 ], [ -73.116937297851905, 7.059017174071007 ], [ -73.117238921396847, 7.058931298826226 ], [ -73.117421273768471, 7.058878289415868 ], [ -73.11761051736346, 7.058826340193717 ], [ -73.117979992953664, 7.058724562125828 ], [ -73.118127889208552, 7.058681624503438 ], [ -73.118234968217479, 7.05865087904543 ], [ -73.118322433744567, 7.058628615093078 ], [ -73.118353179202572, 7.058618013211007 ], [ -73.118404598330613, 7.058615892834593 ], [ -73.118459728117386, 7.058611121987661 ], [ -73.118511147245442, 7.058615362740489 ], [ -73.118566277032215, 7.058625434528457 ], [ -73.118656923123922, 7.058643457727979 ], [ -73.118684488017308, 7.058653529515947 ], [ -73.118709402440174, 7.058668372150848 ], [ -73.118740677992292, 7.058726152408138 ], [ -73.11877354382672, 7.058810967464713 ], [ -73.11884192596608, 7.05903996811746 ], [ -73.118950065163233, 7.059400962202002 ], [ -73.119054493701626, 7.059739162240088 ], [ -73.119140368946418, 7.060038135314509 ], [ -73.119177475533661, 7.060174899593234 ], [ -73.119260170213849, 7.060472812479447 ], [ -73.119280843883885, 7.060552856689088 ], [ -73.119306288400836, 7.060639262027974 ], [ -73.119308938871342, 7.060665766733153 ], [ -73.119305758306737, 7.061053265522871 ], [ -73.119305228212625, 7.06136973170271 ], [ -73.119299397177485, 7.0614126693251 ], [ -73.119288265201305, 7.061455606947491 ], [ -73.11926176049613, 7.061502255228606 ], [ -73.119222533532465, 7.06155155398024 ], [ -73.119181716286491, 7.061579648967729 ], [ -73.119128176782027, 7.0615754082149 ], [ -73.119070396524734, 7.061555794733067 ], [ -73.118932041963703, 7.061506495981434 ], [ -73.118741738180518, 7.061441824500798 ], [ -73.118422091436059, 7.06133421539777 ], [ -73.118145912408096, 7.061243039211954 ], [ -73.117994305494463, 7.061193210366216 ], [ -73.117881925544509, 7.061156633873069 ], [ -73.117763184465304, 7.061121647662233 ], [ -73.117669887903077, 7.061096733239364 ], [ -73.117571820493907, 7.061076589663428 ], [ -73.117429755274145, 7.061052205334664 ], [ -73.117325326735738, 7.061036302511556 ], [ -73.117217187538614, 7.061023050158966 ], [ -73.117125481258697, 7.061013508465102 ], [ -73.117049147707775, 7.061006087147652 ], [ -73.116904962111605, 7.060998665830202 ], [ -73.116711477763801, 7.060987003759924 ], [ -73.116618711295672, 7.060981172724785 ], [ -73.116489368334399, 7.060982232912992 ], [ -73.116341472079498, 7.060983293101198 ], [ -73.116041438816865, 7.060990714418648 ], [ -73.115938070466655, 7.060994955171477 ], [ -73.115653409933032, 7.061014038559206 ], [ -73.115529367912814, 7.061022520064863 ], [ -73.115267501425635, 7.061041603452592 ], [ -73.115153531193371, 7.061053265522871 ], [ -73.115019417385156, 7.061067047969565 ], [ -73.11483494463711, 7.061086661451397 ], [ -73.11476762268596, 7.061092492486536 ], [ -73.114692349323235, 7.061095142957053 ], [ -73.114532260903957, 7.061104154556814 ], [ -73.114451686600205, 7.061107335121435 ], [ -73.114365281261314, 7.061114226344781 ], [ -73.114227986888494, 7.061123237944543 ], [ -73.11408221101, 7.061132249544303 ], [ -73.11401223858833, 7.061138080579442 ], [ -73.113936435131521, 7.061140200955857 ], [ -73.113799140758687, 7.061143911614582 ], [ -73.113685170526423, 7.061149742649722 ], [ -73.11356165860029, 7.061155043590758 ], [ -73.11346359119112, 7.061159284343586 ], [ -73.113322586159569, 7.061166175566933 ], [ -73.113226639126822, 7.061170416319763 ], [ -73.11308033315423, 7.061175717260799 ], [ -73.112906462288279, 7.061184198766455 ], [ -73.112701315870183, 7.061197451119044 ], [ -73.112533276039358, 7.06120699281291 ], [ -73.112384319596231, 7.061216534506773 ], [ -73.112199846848185, 7.061227136388845 ], [ -73.112086936804118, 7.061234027612191 ], [ -73.111976677230587, 7.061238268365021 ], [ -73.111896102926849, 7.061243039211953 ], [ -73.111818179093618, 7.061251520717611 ], [ -73.111662331427169, 7.061266363352511 ], [ -73.111567444582619, 7.061275905046376 ], [ -73.111417427951309, 7.061290217587172 ], [ -73.111339504118078, 7.061294988434105 ], [ -73.111150260523104, 7.061305060222073 ], [ -73.111012966150284, 7.061309831069004 ], [ -73.110828493402224, 7.061319902856972 ], [ -73.110681127241435, 7.061328914456734 ], [ -73.110522629104466, 7.061336335774183 ], [ -73.11041236953092, 7.061344287185736 ], [ -73.110279846005028, 7.061355949256015 ], [ -73.110158454455302, 7.061369201608604 ], [ -73.110099614009798, 7.061376622926055 ], [ -73.110032822152746, 7.061390405372748 ], [ -73.109919382014581, 7.061424331395378 ], [ -73.109781557547649, 7.061463028264939 ], [ -73.109642142798407, 7.061504905699122 ], [ -73.109442827415464, 7.061570637367966 ], [ -73.109274257490526, 7.061620466213703 ], [ -73.109156576599531, 7.061665524212508 ], [ -73.10895938159301, 7.061736026728285 ], [ -73.108808834867588, 7.061792746797368 ], [ -73.108574533273782, 7.061876501665733 ], [ -73.108329099703823, 7.061966087569239 ], [ -73.108072004063587, 7.062060444319678 ], [ -73.107910855456097, 7.062124585706211 ], [ -73.107661711227436, 7.062222123021269 ], [ -73.107515935348943, 7.062278843090354 ], [ -73.107285344413881, 7.062369489182067 ], [ -73.107042031220345, 7.062461195461985 ], [ -73.10665135186602, 7.062604850964056 ], [ -73.106353438979809, 7.062720411478637 ], [ -73.106083621081098, 7.062826430299356 ], [ -73.105936785014407, 7.062875729050989 ], [ -73.105697712573672, 7.062961074201666 ], [ -73.105388137617183, 7.063067093022382 ], [ -73.10525879465591, 7.063112681115292 ], [ -73.105119379906668, 7.06315084789075 ], [ -73.104965122522529, 7.06319537579545 ], [ -73.104797612785788, 7.063238843511944 ], [ -73.104615790508262, 7.063271179252262 ], [ -73.104469484535699, 7.063294503392821 ], [ -73.104173692025896, 7.06332842941545 ], [ -73.104003531818634, 7.063351223461903 ], [ -73.103767109848434, 7.06338461939043 ], [ -73.103634586322542, 7.063401052307642 ], [ -73.103455414515551, 7.06341695513075 ], [ -73.103212101322001, 7.063448760776964 ], [ -73.102882912883658, 7.063488517834733 ], [ -73.102691548912276, 7.063512902163498 ], [ -73.102578108774097, 7.063528274892502 ], [ -73.102371902167803, 7.063553189315369 ], [ -73.102247860147557, 7.063569092138477 ], [ -73.102144491797361, 7.063589765808516 ], [ -73.101954188014176, 7.063624221925249 ], [ -73.101794099594898, 7.063654967383257 ], [ -73.101613337505569, 7.063689953594094 ], [ -73.101427274475199, 7.06373077084007 ], [ -73.101300581984447, 7.063762046392181 ], [ -73.10113731300055, 7.063801273355846 ], [ -73.101023872862385, 7.063820886837679 ], [ -73.100773668445498, 7.063870715683416 ], [ -73.100575413250766, 7.06390994264708 ], [ -73.100486357441355, 7.063926905658395 ], [ -73.100308245822561, 7.063956590928196 ], [ -73.100196926060804, 7.063972493751304 ], [ -73.100061221970293, 7.063985746103893 ], [ -73.099981177760654, 7.063990516950826 ], [ -73.099860846399125, 7.063997938268275 ], [ -73.099768610025109, 7.064000058644689 ], [ -73.099706589014986, 7.064001648927 ], [ -73.099537488995949, 7.064003239209312 ], [ -73.099376870482558, 7.064003769303415 ], [ -73.09926555072083, 7.063996347985964 ], [ -73.09919398801685, 7.06398839657441 ], [ -73.099085848819712, 7.063967192810267 ], [ -73.098958626234847, 7.063930616317119 ], [ -73.09869888012409, 7.063850042013375 ], [ -73.098469349377226, 7.06377370846246 ], [ -73.098316682275396, 7.063721229146205 ], [ -73.098187339314123, 7.063685182747161 ], [ -73.098024070330226, 7.063634823807321 ], [ -73.097915401038989, 7.063604078349313 ], [ -73.09779453958339, 7.063566971762061 ], [ -73.097718736126566, 7.063545767997917 ], [ -73.097655654928246, 7.063526684610189 ], [ -73.097586742694787, 7.063513432257599 ], [ -73.097498747073587, 7.063497529434492 ], [ -73.097395378723377, 7.063484277081903 ], [ -73.097287239526239, 7.063476325670349 ], [ -73.097163727600105, 7.063468904352899 ], [ -73.097038095297577, 7.063461483035448 ], [ -73.096882777725227, 7.063460422847242 ], [ -73.096731700905707, 7.063460422847242 ], [ -73.096590695874141, 7.063461483035447 ], [ -73.096315577034389, 7.063463603411861 ], [ -73.096206377649054, 7.06346625388238 ], [ -73.096070143464431, 7.063465193694173 ], [ -73.095980557560935, 7.06346625388238 ], [ -73.095870828081473, 7.06346625388238 ], [ -73.095781242177978, 7.06346625388238 ], [ -73.095690596086257, 7.063463073317759 ], [ -73.095623274135107, 7.063456712188516 ], [ -73.095536868796216, 7.06344558021234 ], [ -73.095440921763469, 7.063429147295128 ], [ -73.095325361248896, 7.063405293060467 ], [ -73.095256979109536, 7.063381438825806 ], [ -73.09521510167535, 7.063361825343973 ], [ -73.095147249630088, 7.063315707156962 ], [ -73.095020027045223, 7.063231952288596 ], [ -73.094815940815366, 7.063098368574494 ], [ -73.094738547076247, 7.063044829070032 ], [ -73.094571037339506, 7.062924497708519 ], [ -73.09440193732047, 7.062801515876487 ], [ -73.094198911278795, 7.062658390468519 ], [ -73.094081760481885, 7.062571455035531 ], [ -73.093887746039968, 7.062434690756807 ], [ -73.093739319690968, 7.062328671936091 ], [ -73.093472682356889, 7.062139958435216 ], [ -73.093309413372978, 7.062023337732428 ], [ -73.093088894225872, 7.061863779407249 ], [ -73.092957430888191, 7.061772073127329 ], [ -73.092922974771454, 7.061746628610357 ], [ -73.092890373983948, 7.061723834563909 ], [ -73.092835509244367, 7.061685667788445 ], [ -73.092626122073455, 7.061542542380477 ], [ -73.092438998854888, 7.06141584988972 ], [ -73.092328209187244, 7.061326263986214 ], [ -73.092237033001425, 7.061258942035059 ], [ -73.092120412298641, 7.061166175566933 ], [ -73.091995840184296, 7.061071818816495 ], [ -73.091914735786446, 7.061009267712271 ], [ -73.091781152072343, 7.060916501244145 ], [ -73.0916698323106, 7.060832746375779 ], [ -73.091608871488688, 7.060790868941595 ], [ -73.091468926645348, 7.060700752943986 ], [ -73.091341704060483, 7.060622299016656 ], [ -73.091216071757927, 7.060526882078011 ], [ -73.091133377077767, 7.060456379562234 ], [ -73.090995022516736, 7.060342409329964 ], [ -73.090675375772278, 7.060086903972037 ], [ -73.09051104660017, 7.05995862119897 ], [ -73.090346717428048, 7.059823977296659 ], [ -73.090148462233302, 7.059667069441999 ], [ -73.089980952496575, 7.059531365351482 ], [ -73.089903028663343, 7.059469874435466 ], [ -73.089686750269081, 7.059301304510528 ], [ -73.089468881592524, 7.059122132703516 ], [ -73.089270096303679, 7.058988548989412 ], [ -73.088991796899265, 7.058802485959056 ], [ -73.088751134176249, 7.058640277163359 ], [ -73.088652006578869, 7.058576665870929 ], [ -73.0885677216164, 7.058518885613638 ], [ -73.088497749194758, 7.058484429496906 ], [ -73.08830850559977, 7.058389542652364 ], [ -73.088249135060181, 7.058343954559455 ], [ -73.088179162638497, 7.058257019126468 ], [ -73.088125623134047, 7.058174854540413 ], [ -73.088101768899378, 7.058121315035951 ], [ -73.088102829087589, 7.058083678354596 ], [ -73.088111310593249, 7.05804286110862 ], [ -73.088135694922016, 7.058007874897783 ], [ -73.088174391791568, 7.057977129439776 ], [ -73.088206727531883, 7.057962286804876 ], [ -73.088256026283517, 7.057962816898979 ], [ -73.088305325035151, 7.057979779910294 ], [ -73.08833766077548, 7.058005754521369 ], [ -73.088443149502069, 7.058118664565432 ], [ -73.08850039966525, 7.058176974916827 ], [ -73.088554999357925, 7.058212491221767 ], [ -73.088620731026765, 7.058242706585671 ], [ -73.088659427896332, 7.058253308467743 ], [ -73.088759085587796, 7.058257019126469 ], [ -73.088832238573815, 7.058238002000494 ], [ -73.088834708381285, 7.058236165476993 ], [ -73.088852912243851, 7.05822262927149 ], [ -73.088850791867443, 7.058208316730693 ], [ -73.088846551114614, 7.058199835225036 ], [ -73.088837741530753, 7.058195797499103 ], [ -73.088784530104761, 7.058216201880499 ], [ -73.088759085587796, 7.058222563009742 ], [ -73.088686992789704, 7.058221502821534 ], [ -73.088637163943972, 7.058211431033566 ], [ -73.088533265499663, 7.05815577115269 ], [ -73.088474955148257, 7.058110713153885 ], [ -73.088411873949937, 7.05803437960297 ], [ -73.088368936327541, 7.057986671133647 ], [ -73.088339251057747, 7.057963346993089 ], [ -73.088296313435364, 7.057934721911497 ], [ -73.08825125543656, 7.057923059841219 ], [ -73.088242773930901, 7.057924120029425 ], [ -73.088201956684927, 7.057926770499944 ], [ -73.088141525957113, 7.057953275205123 ], [ -73.088094877675999, 7.057994092451099 ], [ -73.088068372970824, 7.058046571767354 ], [ -73.088048759488984, 7.058098520989504 ], [ -73.088060951653375, 7.058138808141377 ], [ -73.088135694921974, 7.058261789973407 ], [ -73.088173331603329, 7.058321690607113 ], [ -73.088265037883247, 7.058420818204483 ], [ -73.088310095882051, 7.058459515074045 ], [ -73.088455341666432, 7.058530017589821 ], [ -73.088529554840946, 7.058568714459382 ], [ -73.088614369897513, 7.058627554904879 ], [ -73.088782409728353, 7.058736754290218 ], [ -73.088848671491306, 7.058784992853644 ], [ -73.088971123229243, 7.058863446780975 ], [ -73.089083503179197, 7.05893819004958 ], [ -73.089172558988594, 7.05899597030687 ], [ -73.089390427665165, 7.059144396655873 ], [ -73.089474182533536, 7.059206947760096 ], [ -73.089572249942691, 7.059289642440255 ], [ -73.089675618292901, 7.059370216744 ], [ -73.089748241185092, 7.059427997001291 ], [ -73.089912040263101, 7.059559990433081 ], [ -73.090010637766369, 7.059638974454516 ], [ -73.090081140282138, 7.059695694523599 ], [ -73.09014475157457, 7.059744993275232 ], [ -73.090296888582316, 7.059866914919056 ], [ -73.090393895803274, 7.059942718375869 ], [ -73.090515817447098, 7.060040255690928 ], [ -73.090649401161173, 7.060149985170369 ], [ -73.090849246638228, 7.060306893025031 ], [ -73.090944133482765, 7.060381106199532 ], [ -73.091015696186759, 7.060438886456823 ], [ -73.09116094197114, 7.060560278006544 ], [ -73.091231444486922, 7.060612757322798 ], [ -73.091317849825799, 7.060671067674193 ], [ -73.091458324763252, 7.060746341036901 ], [ -73.091576005654247, 7.060820024117299 ], [ -73.091718070874009, 7.060914380867737 ], [ -73.091861196281968, 7.061016158935625 ], [ -73.091971985949613, 7.061087721639609 ], [ -73.092037717618467, 7.061139140767657 ], [ -73.092117231733994, 7.06120328215419 ], [ -73.09223014177806, 7.061291277775385 ], [ -73.092325558716709, 7.061378743302476 ], [ -73.092388109820931, 7.061429102242316 ], [ -73.092448540548745, 7.061473100052914 ], [ -73.092585304827466, 7.061575938309009 ], [ -73.092665879131204, 7.061633188472196 ], [ -73.092722069106188, 7.061675065906379 ], [ -73.092829678209227, 7.061755640210124 ], [ -73.092929865994805, 7.061827202914108 ], [ -73.093084653473042, 7.061936932393549 ], [ -73.093197563517094, 7.062018036791397 ], [ -73.093309943467062, 7.062095960624624 ], [ -73.093394228429531, 7.062158511728846 ], [ -73.093591953530179, 7.062302167230917 ], [ -73.093768474866664, 7.062423558780638 ], [ -73.093928563285957, 7.062539119295219 ], [ -73.094075399352647, 7.062645668210039 ], [ -73.094268353606324, 7.062781902394661 ], [ -73.094450705977962, 7.062914425920558 ], [ -73.094607613832622, 7.063023625305895 ], [ -73.094867359943379, 7.063205977677528 ], [ -73.094954295376368, 7.063260047276094 ], [ -73.095093180031498, 7.063353343838323 ], [ -73.095162622359069, 7.06339575136661 ], [ -73.095236835533569, 7.0634238463541 ], [ -73.095333312660429, 7.063442399647725 ], [ -73.09546212552759, 7.063476325670354 ], [ -73.095607371311971, 7.06348745764653 ], [ -73.0957277026735, 7.063501770187326 ], [ -73.096038867912299, 7.06350230028143 ], [ -73.096416825008163, 7.063500179905016 ], [ -73.09671579808257, 7.063500179905016 ], [ -73.096878536972369, 7.063504420657845 ], [ -73.096985085887184, 7.063502300281431 ], [ -73.097094815366646, 7.063506541034259 ], [ -73.097323816019383, 7.063522443857366 ], [ -73.097410221358274, 7.063529865174816 ], [ -73.097659895681048, 7.063564321291549 ], [ -73.09774312045532, 7.06359241627904 ], [ -73.098113126139623, 7.063703205946689 ], [ -73.098453446554132, 7.063799683073541 ], [ -73.098933711811966, 7.063960831681031 ], [ -73.099184976417064, 7.064029743914496 ], [ -73.099237985827429, 7.064046706925811 ], [ -73.099312199001929, 7.064044586549397 ], [ -73.099576185865516, 7.064049887490432 ], [ -73.099795644824397, 7.064053068055054 ], [ -73.099908024774351, 7.064044586549397 ], [ -73.100088256769567, 7.06402868372629 ], [ -73.100255766506294, 7.064011720714976 ], [ -73.100411614172756, 7.063983095633382 ], [ -73.100556859957123, 7.063965072433859 ], [ -73.10089505999521, 7.063901461141429 ], [ -73.101174949681905, 7.063842090601828 ], [ -73.101328676971946, 7.063809224767406 ], [ -73.101420913345962, 7.063782720062227 ], [ -73.101625529669946, 7.063739252345732 ], [ -73.101783497712816, 7.063707446699517 ], [ -73.10190541935664, 7.063688363311788 ], [ -73.102014618741975, 7.063665039171232 ], [ -73.102230897136238, 7.063630052960395 ], [ -73.10231677238103, 7.063618390890116 ], [ -73.102389925367319, 7.063608849196251 ], [ -73.102546833221965, 7.063590825996729 ], [ -73.102711162394073, 7.063570682420793 ], [ -73.102973028881237, 7.06353463602175 ], [ -73.103338793812711, 7.063490108117049 ], [ -73.103627165005065, 7.063458302470834 ], [ -73.103872068480911, 7.063426496824619 ], [ -73.104048059723297, 7.063399992119439 ], [ -73.104351273550549, 7.063361825343981 ], [ -73.104696894906112, 7.063314116874658 ], [ -73.104856983325391, 7.063269588969958 ], [ -73.105328767077566, 7.063140246008683 ], [ -73.105489915685055, 7.063086176410118 ], [ -73.105893847391982, 7.06294729175498 ], [ -73.106202362160275, 7.062832791428606 ], [ -73.10637305246162, 7.062772360700797 ], [ -73.106857558472299, 7.062586827764543 ], [ -73.107344184859386, 7.062400234640082 ], [ -73.107578486453178, 7.062307998266058 ], [ -73.107891241974301, 7.062188196998648 ], [ -73.108073594345939, 7.062116104200561 ], [ -73.108267608787855, 7.062046131778888 ], [ -73.108416035136855, 7.061993122368529 ], [ -73.108801943644266, 7.061853177525183 ], [ -73.108976874698442, 7.061787445856338 ], [ -73.109157106693658, 7.061725954940323 ], [ -73.109691441550069, 7.06155526463897 ], [ -73.109970271048553, 7.061477870899846 ], [ -73.110094313068799, 7.06144288468901 ], [ -73.110336035980026, 7.06140895866638 ], [ -73.110587300585124, 7.061394116031479 ], [ -73.110776014085999, 7.061385634525823 ], [ -73.111000773985921, 7.061372912267337 ], [ -73.111234015391503, 7.061360190008851 ], [ -73.111395163998992, 7.061353828879608 ], [ -73.111483159620192, 7.061352768691401 ], [ -73.111653849921538, 7.061334745491879 ], [ -73.111857406057325, 7.06131566210415 ], [ -73.112010073159155, 7.061305060222079 ], [ -73.11211503179166, 7.061297638904628 ], [ -73.11242566693636, 7.061278555516899 ], [ -73.112610139684406, 7.061265833258413 ], [ -73.112911233135236, 7.061248870247098 ], [ -73.113056478919631, 7.061243569306063 ], [ -73.113322586159626, 7.061226606294748 ], [ -73.113557947941615, 7.061221305353712 ], [ -73.11375514294815, 7.061208583095226 ], [ -73.114043514140491, 7.061204342342398 ], [ -73.114567247114834, 7.061162995002318 ], [ -73.114939373175531, 7.061142851426382 ], [ -73.115184276651391, 7.061113166156582 ], [ -73.115466286714508, 7.061093022580645 ], [ -73.115685745673403, 7.06107605956933 ], [ -73.115952913101594, 7.061060156746222 ], [ -73.116184034130754, 7.061048494675942 ], [ -73.116347303114665, 7.061047434487736 ], [ -73.116463923817449, 7.061047434487736 ], [ -73.116810605361195, 7.061051675240566 ], [ -73.117095795988917, 7.06106863825188 ], [ -73.11723892139689, 7.061085601263194 ], [ -73.117594084446281, 7.061146031991002 ], [ -73.117752052489152, 7.061187379331082 ], [ -73.118053145939996, 7.061278555516898 ], [ -73.118618226254412, 7.061459847700323 ], [ -73.119137718475926, 7.061635838942713 ], [ -73.119178005627802, 7.061625237060642 ], [ -73.119220413156086, 7.06159237122622 ], [ -73.119266001248988, 7.061547843321518 ], [ -73.119311589341905, 7.061475750523431 ], [ -73.119330672729632, 7.061410018854587 ], [ -73.119331732917857, 7.061181018201839 ], [ -73.119331732917857, 7.060972161125027 ], [ -73.119333853294265, 7.060806771764709 ], [ -73.119334913482476, 7.060655164851084 ], [ -73.119323251412197, 7.060612757322797 ], [ -73.11927660313107, 7.060452668903516 ], [ -73.119196028827332, 7.060154756017303 ], [ -73.11911545452358, 7.059858963507502 ], [ -73.119059264548611, 7.059668129630213 ], [ -73.118978690244859, 7.059397781637385 ], [ -73.118936282716575, 7.059259957170453 ], [ -73.118793157308616, 7.058795594735715 ], [ -73.118767712791637, 7.058726682502249 ], [ -73.118723184886932, 7.058645048010298 ], [ -73.118658513406302, 7.058610061799461 ], [ -73.118517508374751, 7.058589918223525 ], [ -73.118439054447407, 7.05858461728249 ], [ -73.118343637508772, 7.058587797847111 ], [ -73.118229137182396, 7.058624904434362 ], [ -73.117920622414104, 7.058711839867349 ], [ -73.117546375976985, 7.05881255774703 ], [ -73.117076712601204, 7.058949322025755 ], [ -73.116829688748936, 7.059022475012049 ], [ -73.116494669275468, 7.059128493832766 ], [ -73.116389710642963, 7.05916454023181 ], [ -73.116301715021763, 7.05920164681906 ], [ -73.116249765799623, 7.059247234911968 ], [ -73.116237573635232, 7.059259427076351 ], [ -73.116229622223685, 7.059259957170455 ], [ -73.116222200906236, 7.059251475664797 ], [ -73.116204707800804, 7.059225501053722 ], [ -73.11618350403667, 7.059209598230614 ], [ -73.116177142907432, 7.05920164681906 ], [ -73.11617767300153, 7.0591926352193 ], [ -73.116206828177226, 7.059182563431332 ], [ -73.116487778052118, 7.05910251922169 ], [ -73.116610759884153, 7.059062232069818 ], [ -73.116834459595864, 7.058992789742248 ], [ -73.11696009189842, 7.058950912308066 ], [ -73.117047027331409, 7.058927058073404 ], [ -73.11740219038083, 7.058815208217548 ], [ -73.11765451517411, 7.058741525137149 ], [ -73.118009678223515, 7.058637626692848 ], [ -73.118371202402159, 7.058536908813166 ], [ -73.118458667929247, 7.058510404107987 ], [ -73.118497364798813, 7.058504042978744 ], [ -73.118575818726143, 7.058493441096672 ], [ -73.118609214654668, 7.058484429496912 ], [ -73.118626707760086, 7.058472767426633 ], [ -73.118642080489082, 7.058445202533247 ], [ -73.118659043500386, 7.058431950180657 ], [ -73.118679187076324, 7.058425058957311 ], [ -73.118710992722541, 7.058422938580896 ], [ -73.118731666392577, 7.058427709427828 ], [ -73.118749159497938, 7.058442552062728 ], [ -73.118763472038793, 7.058467996579701 ], [ -73.118776724391381, 7.058501392508227 ], [ -73.118800048531938, 7.058580376529661 ], [ -73.118844576436643, 7.058735694102011 ], [ -73.118868430671313, 7.058810437370616 ], [ -73.119408596562607, 7.060671664030044 ] ] } }
]
}
