{
"type": "FeatureCollection",
"name": "21k",
"crs": { "type": "name", "properties": { "name": "urn:ogc:def:crs:OGC:1.3:CRS84" } },
"features": [
{ "type": "Feature", "properties": { "fid": 1 }, "geometry": { "type": "LineString", "coordinates": [ [ -73.11927660313097, 7.06003097904411 ], [ -73.119245857672965, 7.060038400361559 ], [ -73.119231545132166, 7.059997583115584 ], [ -73.119122875840915, 7.059630757995905 ], [ -73.119034880219729, 7.059330724733277 ], [ -73.118976569868323, 7.059126108409293 ], [ -73.118850407471697, 7.058682949738698 ], [ -73.118816481449059, 7.058559967906667 ], [ -73.118793157308517, 7.058480983885233 ], [ -73.118784675802871, 7.058458984979938 ], [ -73.11876824288565, 7.058436455980532 ], [ -73.118750219686135, 7.058419492969217 ], [ -73.118734051815977, 7.058405445475477 ], [ -73.11871364319299, 7.058398819299177 ], [ -73.118686078299604, 7.05839775911097 ], [ -73.118668055100073, 7.058401999863799 ], [ -73.118635189265646, 7.058422673533839 ], [ -73.118612395219202, 7.058452358803639 ], [ -73.118599142866614, 7.058465081062125 ], [ -73.118581119667084, 7.058471442191369 ], [ -73.118501605551558, 7.058482044073439 ], [ -73.118428982659367, 7.05849688670834 ], [ -73.118286917439605, 7.05853399329559 ], [ -73.118122058173384, 7.058581701764913 ], [ -73.117982643424142, 7.058620398634474 ], [ -73.117823615193061, 7.058666516821486 ], [ -73.117688706243698, 7.058704948643997 ], [ -73.117183261515947, 7.058854965275311 ], [ -73.116696635128861, 7.059008692565349 ], [ -73.116469754852531, 7.05907972517523 ], [ -73.116289522857315, 7.059133794773795 ], [ -73.116161240084239, 7.059166660608218 ], [ -73.116128904343952, 7.059176732396185 ], [ -73.116116712179561, 7.059186804184153 ], [ -73.11611565199135, 7.059198466254433 ], [ -73.116119362650082, 7.059208538042401 ], [ -73.116141626602428, 7.059220200112679 ], [ -73.116173432248644, 7.059236633029891 ], [ -73.11619569620099, 7.059261017358656 ], [ -73.116204177706649, 7.059286991969731 ], [ -73.116209478647676, 7.059298123945907 ], [ -73.116222731000263, 7.059306605451564 ], [ -73.116234923164654, 7.059305545263356 ], [ -73.116247115329031, 7.059296003569492 ], [ -73.116266198716758, 7.059271619240727 ], [ -73.116292173327835, 7.059245114535548 ], [ -73.116336171138443, 7.059215959359851 ], [ -73.116372747631587, 7.059202176913158 ], [ -73.116531245768556, 7.059142806373557 ], [ -73.116608109413576, 7.059117361856584 ], [ -73.116937297851905, 7.059017174071007 ], [ -73.117238921396847, 7.058931298826226 ], [ -73.117421273768471, 7.058878289415868 ], [ -73.11761051736346, 7.058826340193717 ], [ -73.117979992953664, 7.058724562125828 ], [ -73.118127889208552, 7.058681624503438 ], [ -73.118234968217479, 7.05865087904543 ], [ -73.118322433744567, 7.058628615093078 ], [ -73.118353179202572, 7.058618013211007 ], [ -73.118404598330613, 7.058615892834593 ], [ -73.118459728117386, 7.058611121987661 ], [ -73.118511147245442, 7.058615362740489 ], [ -73.118566277032215, 7.058625434528457 ], [ -73.118656923123922, 7.058643457727979 ], [ -73.118684488017308, 7.058653529515947 ], [ -73.118709402440174, 7.058668372150848 ], [ -73.118740677992292, 7.058726152408138 ], [ -73.11877354382672, 7.058810967464713 ], [ -73.11884192596608, 7.05903996811746 ], [ -73.118950065163233, 7.059400962202002 ], [ -73.119054493701626, 7.059739162240088 ], [ -73.119140368946418, 7.060038135314509 ], [ -73.119177475533661, 7.060174899593234 ], [ -73.119260170213849, 7.060472812479447 ], [ -73.119280843883885, 7.060552856689088 ], [ -73.119306288400836, 7.060639262027974 ], [ -73.119308938871342, 7.060665766733153 ], [ -73.119305758306737, 7.061053265522871 ], [ -73.119305228212625, 7.06136973170271 ], [ -73.119299397177485, 7.0614126693251 ], [ -73.119288265201305, 7.061455606947491 ], [ -73.11926176049613, 7.061502255228606 ], [ -73.119222533532465, 7.06155155398024 ], [ -73.119181716286491, 7.061579648967729 ], [ -73.119128176782027, 7.0615754082149 ], [ -73.119070396524734, 7.061555794733067 ], [ -73.118932041963703, 7.061506495981434 ], [ -73.118741738180518, 7.061441824500798 ], [ -73.118422091436059, 7.06133421539777 ], [ -73.118145912408096, 7.061243039211954 ], [ -73.117994305494463, 7.061193210366216 ], [ -73.117881925544509, 7.061156633873069 ], [ -73.117763184465304, 7.061121647662233 ], [ -73.117669887903077, 7.061096733239364 ], [ -73.117571820493907, 7.061076589663428 ], [ -73.117429755274145, 7.061052205334664 ], [ -73.117325326735738, 7.061036302511556 ], [ -73.117217187538614, 7.061023050158966 ], [ -73.117125481258697, 7.061013508465102 ], [ -73.117049147707775, 7.061006087147652 ], [ -73.116904962111605, 7.060998665830202 ], [ -73.116711477763801, 7.060987003759924 ], [ -73.116618711295672, 7.060981172724785 ], [ -73.116489368334399, 7.060982232912992 ], [ -73.116341472079498, 7.060983293101198 ], [ -73.116041438816865, 7.060990714418648 ], [ -73.115938070466655, 7.060994955171477 ], [ -73.115653409933032, 7.061014038559206 ], [ -73.115529367912814, 7.061022520064863 ], [ -73.115267501425635, 7.061041603452592 ], [ -73.115153531193371, 7.061053265522871 ], [ -73.115019417385156, 7.061067047969565 ], [ -73.11483494463711, 7.061086661451397 ], [ -73.11476762268596, 7.061092492486536 ], [ -73.114692349323235, 7.061095142957053 ], [ -73.114532260903957, 7.061104154556814 ], [ -73.114451686600205, 7.061107335121435 ], [ -73.114365281261314, 7.061114226344781 ], [ -73.114227986888494, 7.061123237944543 ], [ -73.11408221101, 7.061132249544303 ], [ -73.11401223858833, 7.061138080579442 ], [ -73.113936435131521, 7.061140200955857 ], [ -73.113799140758687, 7.061143911614582 ], [ -73.113685170526423, 7.061149742649722 ], [ -73.11356165860029, 7.061155043590758 ], [ -73.11346359119112, 7.061159284343586 ], [ -73.113322586159569, 7.061166175566933 ], [ -73.113226639126822, 7.061170416319763 ], [ -73.11308033315423, 7.061175717260799 ], [ -73.112906462288279, 7.061184198766455 ], [ -73.112701315870183, 7.061197451119044 ], [ -73.112533276039358, 7.06120699281291 ], [ -73.112384319596231, 7.061216534506773 ], [ -73.112199846848185, 7.061227136388845 ], [ -73.112086936804118, 7.061234027612191 ], [ -73.111976677230587, 7.061238268365021 ], [ -73.111896102926849, 7.061243039211953 ], [ -73.111818179093618, 7.061251520717611 ], [ -73.111662331427169, 7.061266363352511 ], [ -73.111567444582619, 7.061275905046376 ], [ -73.111417427951309, 7.061290217587172 ], [ -73.111339504118078, 7.061294988434105 ], [ -73.111150260523104, 7.061305060222073 ], [ -73.111012966150284, 7.061309831069004 ], [ -73.110828493402224, 7.061319902856972 ], [ -73.110681127241435, 7.061328914456734 ], [ -73.110522629104466, 7.061336335774183 ], [ -73.11041236953092, 7.061344287185736 ], [ -73.110279846005028, 7.061355949256015 ], [ -73.110158454455302, 7.061369201608604 ], [ -73.110099614009798, 7.061376622926055 ], [ -73.110032822152746, 7.061390405372748 ], [ -73.109919382014581, 7.061424331395378 ], [ -73.109781557547649, 7.061463028264939 ], [ -73.109642142798407, 7.061504905699122 ], [ -73.109442827415464, 7.061570637367966 ], [ -73.109274257490526, 7.061620466213703 ], [ -73.109156576599531, 7.061665524212508 ], [ -73.10895938159301, 7.061736026728285 ], [ -73.108808834867588, 7.061792746797368 ], [ -73.108574533273782, 7.061876501665733 ], [ -73.108329099703823, 7.061966087569239 ], [ -73.108072004063587, 7.062060444319678 ], [ -73.107910855456097, 7.062124585706211 ], [ -73.107661711227436, 7.062222123021269 ], [ -73.107515935348943, 7.062278843090354 ], [ -73.107285344413881, 7.062369489182067 ], [ -73.107042031220345, 7.062461195461985 ], [ -73.10665135186602, 7.062604850964056 ], [ -73.106353438979809, 7.062720411478637 ], [ -73.106083621081098, 7.062826430299356 ], [ -73.105936785014407, 7.062875729050989 ], [ -73.105697712573672, 7.062961074201666 ], [ -73.105388137617183, 7.063067093022382 ], [ -73.10525879465591, 7.063112681115292 ], [ -73.105119379906668, 7.06315084789075 ], [ -73.104965122522529, 7.06319537579545 ], [ -73.104797612785788, 7.063238843511944 ], [ -73.104615790508262, 7.063271179252262 ], [ -73.104469484535699, 7.063294503392821 ], [ -73.104173692025896, 7.06332842941545 ], [ -73.104003531818634, 7.063351223461903 ], [ -73.103767109848434, 7.06338461939043 ], [ -73.103634586322542, 7.063401052307642 ], [ -73.103455414515551, 7.06341695513075 ], [ -73.103212101322001, 7.063448760776964 ], [ -73.102882912883658, 7.063488517834733 ], [ -73.102691548912276, 7.063512902163498 ], [ -73.102578108774097, 7.063528274892502 ], [ -73.102371902167803, 7.063553189315369 ], [ -73.102247860147557, 7.063569092138477 ], [ -73.102144491797361, 7.063589765808516 ], [ -73.101954188014176, 7.063624221925249 ], [ -73.101794099594898, 7.063654967383257 ], [ -73.101613337505569, 7.063689953594094 ], [ -73.101427274475199, 7.06373077084007 ], [ -73.101300581984447, 7.063762046392181 ], [ -73.10113731300055, 7.063801273355846 ], [ -73.101023872862385, 7.063820886837679 ], [ -73.100773668445498, 7.063870715683416 ], [ -73.100575413250766, 7.06390994264708 ], [ -73.100486357441355, 7.063926905658395 ], [ -73.100308245822561, 7.063956590928196 ], [ -73.100196926060804, 7.063972493751304 ], [ -73.100061221970293, 7.063985746103893 ], [ -73.099981177760654, 7.063990516950826 ], [ -73.099860846399125, 7.063997938268275 ], [ -73.099768610025109, 7.064000058644689 ], [ -73.099706589014986, 7.064001648927 ], [ -73.099537488995949, 7.064003239209312 ], [ -73.099376870482558, 7.064003769303415 ], [ -73.09926555072083, 7.063996347985964 ], [ -73.09919398801685, 7.06398839657441 ], [ -73.099085848819712, 7.063967192810267 ], [ -73.098958626234847, 7.063930616317119 ], [ -73.09869888012409, 7.063850042013375 ], [ -73.098469349377226, 7.06377370846246 ], [ -73.098316682275396, 7.063721229146205 ], [ -73.098187339314123, 7.063685182747161 ], [ -73.098024070330226, 7.063634823807321 ], [ -73.097915401038989, 7.063604078349313 ], [ -73.09779453958339, 7.063566971762061 ], [ -73.097718736126566, 7.063545767997917 ], [ -73.097655654928246, 7.063526684610189 ], [ -73.097586742694787, 7.063513432257599 ], [ -73.097498747073587, 7.063497529434492 ], [ -73.097395378723377, 7.063484277081903 ], [ -73.097287239526239, 7.063476325670349 ], [ -73.097163727600105, 7.063468904352899 ], [ -73.097038095297577, 7.063461483035448 ], [ -73.096882777725227, 7.063460422847242 ], [ -73.096731700905707, 7.063460422847242 ], [ -73.096590695874141, 7.063461483035447 ], [ -73.096315577034389, 7.063463603411861 ], [ -73.096206377649054, 7.06346625388238 ], [ -73.096070143464431, 7.063465193694173 ], [ -73.095980557560935, 7.06346625388238 ], [ -73.095870828081473, 7.06346625388238 ], [ -73.095781242177978, 7.06346625388238 ], [ -73.095690596086257, 7.063463073317759 ], [ -73.095623274135107, 7.063456712188516 ], [ -73.095536868796216, 7.06344558021234 ], [ -73.095440921763469, 7.063429147295128 ], [ -73.095325361248896, 7.063405293060467 ], [ -73.095256979109536, 7.063381438825806 ], [ -73.09521510167535, 7.063361825343973 ], [ -73.095147249630088, 7.063315707156962 ], [ -73.095020027045223, 7.063231952288596 ], [ -73.094815940815366, 7.063098368574494 ], [ -73.094738547076247, 7.063044829070032 ], [ -73.094571037339506, 7.062924497708519 ], [ -73.09440193732047, 7.062801515876487 ], [ -73.094198911278795, 7.062658390468519 ], [ -73.094081760481885, 7.062571455035531 ], [ -73.093887746039968, 7.062434690756807 ], [ -73.093739319690968, 7.062328671936091 ], [ -73.093472682356889, 7.062139958435216 ], [ -73.093309413372978, 7.062023337732428 ], [ -73.093088894225872, 7.061863779407249 ], [ -73.092957430888191, 7.061772073127329 ], [ -73.092922974771454, 7.061746628610357 ], [ -73.092890373983948, 7.061723834563909 ], [ -73.092835509244367, 7.061685667788445 ], [ -73.092626122073455, 7.061542542380477 ], [ -73.092438998854888, 7.06141584988972 ], [ -73.092328209187244, 7.061326263986214 ], [ -73.092237033001425, 7.061258942035059 ], [ -73.092120412298641, 7.061166175566933 ], [ -73.091995840184296, 7.061071818816495 ], [ -73.091914735786446, 7.061009267712271 ], [ -73.091781152072343, 7.060916501244145 ], [ -73.0916698323106, 7.060832746375779 ], [ -73.091608871488688, 7.060790868941595 ], [ -73.091468926645348, 7.060700752943986 ], [ -73.091341704060483, 7.060622299016656 ], [ -73.091216071757927, 7.060526882078011 ], [ -73.091133377077767, 7.060456379562234 ], [ -73.090995022516736, 7.060342409329964 ], [ -73.090675375772278, 7.060086903972037 ], [ -73.09051104660017, 7.05995862119897 ], [ -73.090346717428048, 7.059823977296659 ], [ -73.090148462233302, 7.059667069441999 ], [ -73.089980952496575, 7.059531365351482 ], [ -73.089903028663343, 7.059469874435466 ], [ -73.089686750269081, 7.059301304510528 ], [ -73.089468881592524, 7.059122132703516 ], [ -73.089270096303679, 7.058988548989412 ], [ -73.088991796899265, 7.058802485959056 ], [ -73.088751134176249, 7.058640277163359 ], [ -73.088652006578869, 7.058576665870929 ], [ -73.0885677216164, 7.058518885613638 ], [ -73.088497749194758, 7.058484429496906 ], [ -73.08830850559977, 7.058389542652364 ], [ -73.088249135060181, 7.058343954559455 ], [ -73.088179162638497, 7.058257019126468 ], [ -73.088125623134047, 7.058174854540413 ], [ -73.088101768899378, 7.058121315035951 ], [ -73.088102829087589, 7.058083678354596 ], [ -73.088111310593249, 7.05804286110862 ], [ -73.088135694922016, 7.058007874897783 ], [ -73.088174391791568, 7.057977129439776 ], [ -73.088206727531883, 7.057962286804876 ], [ -73.088256026283517, 7.057962816898979 ], [ -73.088305325035151, 7.057979779910294 ], [ -73.08833766077548, 7.058005754521369 ], [ -73.088443149502069, 7.058118664565432 ], [ -73.08850039966525, 7.058176974916827 ], [ -73.088554999357925, 7.058212491221767 ], [ -73.088620731026765, 7.058242706585671 ], [ -73.088659427896332, 7.058253308467743 ], [ -73.088759085587796, 7.058257019126469 ], [ -73.088832768668198, 7.058236875550532 ], [ -73.0888921392078, 7.058215141692286 ], [ -73.088955220406135, 7.05817432444631 ], [ -73.089043746121433, 7.058118664565434 ], [ -73.089090394402561, 7.058078907507665 ], [ -73.089191112282251, 7.058008404991888 ], [ -73.089227158681283, 7.057968647934119 ], [ -73.08927804771524, 7.057915638523761 ], [ -73.089297661197065, 7.057883832877546 ], [ -73.089377175312578, 7.057761911233722 ], [ -73.089415342088031, 7.057683987400496 ], [ -73.089539914202376, 7.05743484317181 ], [ -73.089660245563891, 7.057204782330856 ], [ -73.089697352151148, 7.057148062261772 ], [ -73.089770505137437, 7.057038332782331 ], [ -73.089860621135045, 7.056931253773407 ], [ -73.089976711743731, 7.056792899212371 ], [ -73.090047744353612, 7.056714975379144 ], [ -73.090123547810421, 7.056620088534603 ], [ -73.090138390445318, 7.056593583829424 ], [ -73.090165425244606, 7.056541634607273 ], [ -73.090208097819939, 7.056448338045041 ], [ -73.090231156913447, 7.056386582081974 ], [ -73.090315441875902, 7.056144594123688 ], [ -73.09032710394618, 7.056083103207673 ], [ -73.09034936789854, 7.055853042366717 ], [ -73.090355729027777, 7.055769287498351 ], [ -73.090353608651355, 7.05565372698377 ], [ -73.090358909592396, 7.05558269437389 ], [ -73.090374812415533, 7.055536576186878 ], [ -73.090401317120708, 7.055503710352456 ], [ -73.090432062578714, 7.055475615364966 ], [ -73.090485602083177, 7.055444869906958 ], [ -73.090523768858631, 7.055435328213093 ], [ -73.090715662924111, 7.055400872096361 ], [ -73.090804718733509, 7.055389210026083 ], [ -73.090933001506585, 7.055393450778911 ], [ -73.091113233501801, 7.055393450778911 ], [ -73.091183205923471, 7.055388149837875 ], [ -73.091246817215904, 7.055390270214289 ], [ -73.091325271143234, 7.055383909085046 ], [ -73.091465215986574, 7.055369066450145 ], [ -73.091633785911512, 7.055341501556758 ], [ -73.091800235460042, 7.055313936663372 ], [ -73.091910495033588, 7.055292732899229 ], [ -73.092033476865623, 7.055257746688392 ], [ -73.092153278133026, 7.055214278971898 ], [ -73.092376977844737, 7.055134764856361 ], [ -73.092615520191345, 7.055052070176203 ], [ -73.092750164093658, 7.054996940389429 ], [ -73.092931456277086, 7.054913185521063 ], [ -73.093080942814296, 7.054844273287597 ], [ -73.093267535938764, 7.054740374843295 ], [ -73.093352350995332, 7.05469372656218 ], [ -73.093494416215108, 7.054598309623535 ], [ -73.093760523455103, 7.054429739698596 ], [ -73.093977862037576, 7.05428979485525 ], [ -73.094149612527133, 7.054167873211426 ], [ -73.094261992477087, 7.054066095143538 ], [ -73.094382853932714, 7.053965377263857 ], [ -73.094518558023225, 7.053864659384177 ], [ -73.094630937973193, 7.05378090451581 ], [ -73.094744378111358, 7.053711992282344 ], [ -73.094887503519303, 7.053647320801707 ], [ -73.095058193820662, 7.053584769697484 ], [ -73.095211921110703, 7.053528579722505 ], [ -73.095362467836125, 7.053489352758839 ], [ -73.095526797008233, 7.053424681278202 ], [ -73.095630695452527, 7.053372732056051 ], [ -73.095781242177949, 7.053303819822585 ], [ -73.095870297987361, 7.053243389094777 ], [ -73.096046289229747, 7.053134189709438 ], [ -73.096149127485845, 7.053052555217486 ], [ -73.096302854775885, 7.052914730750555 ], [ -73.096525494299371, 7.052718595932229 ], [ -73.096623031614428, 7.052632720687448 ], [ -73.096791601539366, 7.052507618479003 ], [ -73.096949569582236, 7.052412201540358 ], [ -73.097028023509566, 7.052379335705936 ], [ -73.097299431690601, 7.052278617826254 ], [ -73.097395908817461, 7.052248932556454 ], [ -73.097565538930596, 7.052194862957889 ], [ -73.097669437374904, 7.052150335053188 ], [ -73.097776516383831, 7.052099446019244 ], [ -73.097856030499372, 7.05205597830275 ], [ -73.097992794778108, 7.051959501175896 ], [ -73.0981995314785, 7.051798352568407 ], [ -73.098506986058581, 7.051564050974624 ], [ -73.098693579183049, 7.051424106131279 ], [ -73.098881232495714, 7.051299003922833 ], [ -73.099089029384331, 7.051150577573829 ], [ -73.099208830651747, 7.051089086657813 ], [ -73.099544910313426, 7.050903553721558 ], [ -73.099698637603453, 7.050819798853192 ], [ -73.099943541079313, 7.050683034574468 ], [ -73.100160879661786, 7.050545210107536 ], [ -73.100355954291899, 7.050421168087298 ], [ -73.100692033953578, 7.050222912892557 ], [ -73.101014331168557, 7.050027838262438 ], [ -73.101214706739711, 7.049898495301164 ], [ -73.101620758823032, 7.049636628813994 ], [ -73.101955778296499, 7.049356739127302 ], [ -73.102354409062386, 7.049159544120769 ], [ -73.102810289991467, 7.049021719653838 ], [ -73.103015966503676, 7.048900858198221 ], [ -73.10346124555069, 7.048517070067226 ], [ -73.103857755940155, 7.048211735863563 ], [ -73.104148247508917, 7.048001818598545 ], [ -73.10428183122302, 7.047853392249541 ], [ -73.104604128437998, 7.047422955837432 ], [ -73.104864934736966, 7.047064612223409 ], [ -73.104909462641658, 7.046967074908351 ], [ -73.105038805602931, 7.046559962636799 ], [ -73.105104537271771, 7.04635004537178 ], [ -73.105159667058544, 7.046205859775604 ], [ -73.105496806908434, 7.045722413953136 ], [ -73.105619788740455, 7.045612154379591 ], [ -73.106908977600369, 7.045046013876965 ], [ -73.1071634227701, 7.044933633927005 ], [ -73.107288524978543, 7.044891226398719 ], [ -73.107553572030326, 7.044844578117603 ], [ -73.107693516873681, 7.044853059623261 ], [ -73.107947962043397, 7.044880624516647 ], [ -73.108115471780124, 7.044891226398719 ], [ -73.10838051883195, 7.044891226398719 ], [ -73.108914853688361, 7.044863661505333 ], [ -73.109090844930748, 7.044844578117604 ], [ -73.109205345257124, 7.044838216988361 ], [ -73.109504318331545, 7.044800050212904 ], [ -73.109773606136159, 7.044732198167645 ], [ -73.109998366036066, 7.044664346122384 ], [ -73.110316422498215, 7.044522280902624 ], [ -73.110553904656612, 7.044409900952664 ], [ -73.11081047020275, 7.044291159873461 ], [ -73.110977979939477, 7.04421694669896 ], [ -73.111130647041321, 7.04416817804143 ], [ -73.111955473466494, 7.043903130989638 ], [ -73.112288372563555, 7.043767426899121 ], [ -73.112498289828565, 7.043684732218962 ], [ -73.112735771986976, 7.043570231892588 ], [ -73.113066550707615, 7.043400601779441 ], [ -73.113253143832083, 7.043317907099282 ], [ -73.113471542602753, 7.04315039736255 ], [ -73.113914701273359, 7.042821739018328 ], [ -73.114323933921341, 7.042546090084465 ], [ -73.114667434900454, 7.042329811690204 ], [ -73.114830703884365, 7.042206829858172 ], [ -73.115019417385213, 7.042003273722397 ], [ -73.115356557235089, 7.041719143282877 ], [ -73.115517705842578, 7.04159828182726 ], [ -73.115615243157649, 7.041496503759372 ], [ -73.115731863860432, 7.04127598461228 ], [ -73.115842123433978, 7.041097872993475 ], [ -73.11592269773773, 7.040998215302001 ], [ -73.11600539241789, 7.040928242880328 ], [ -73.116191985542343, 7.040775575778497 ], [ -73.116420986195095, 7.040671677334195 ], [ -73.116554569909198, 7.040622908676665 ], [ -73.116709357387435, 7.040552936254993 ], [ -73.116821737337403, 7.040474482327662 ], [ -73.116906552393971, 7.040408750658817 ], [ -73.116972284062811, 7.040315454096587 ], [ -73.117065580625052, 7.040167027747583 ], [ -73.117167358692939, 7.039944388224079 ], [ -73.117387877840031, 7.039471544283681 ], [ -73.117625359998442, 7.038990218837628 ], [ -73.117646563762577, 7.038939329803684 ], [ -73.117862842156839, 7.038731532915079 ], [ -73.118002787000194, 7.038602189953805 ], [ -73.11824875066425, 7.038460124734044 ], [ -73.118320843462342, 7.038415596829344 ], [ -73.118342047226477, 7.038436800593488 ], [ -73.118386575131169, 7.038491930380261 ], [ -73.118434813694606, 7.038522675838268 ], [ -73.118470329999539, 7.038536458284962 ], [ -73.118522809315792, 7.038553421296276 ], [ -73.118578469196677, 7.038569324119385 ], [ -73.118614515595723, 7.03857462506042 ], [ -73.118703041311022, 7.038578335719145 ], [ -73.118768772979863, 7.038581516283767 ], [ -73.118835034742816, 7.038582576471974 ], [ -73.118953775822021, 7.038582576471973 ], [ -73.118987701844645, 7.038585757036595 ], [ -73.119082588689182, 7.038593708448148 ], [ -73.119129767064408, 7.038602720047909 ], [ -73.119158392145991, 7.038612791835877 ], [ -73.119174825063212, 7.038624984000259 ], [ -73.119184896851181, 7.038638236352849 ], [ -73.119192848262728, 7.038669511904961 ], [ -73.119198149203768, 7.03872570187994 ], [ -73.119214052026891, 7.038828540136034 ], [ -73.119219352967932, 7.038865116629181 ], [ -73.119244267390798, 7.038918126039539 ], [ -73.119273952660592, 7.038978556767348 ], [ -73.119304168024499, 7.0390305059895 ], [ -73.119327492165056, 7.039050119471332 ], [ -73.119364598752313, 7.039069202859062 ], [ -73.119406476186498, 7.039081395023445 ], [ -73.119483869925617, 7.039098358034759 ], [ -73.119576636393745, 7.03911479095197 ], [ -73.119693787190627, 7.039134934527906 ], [ -73.119736724813023, 7.039148186880496 ], [ -73.120156559343059, 7.039298733605915 ], [ -73.120449171288243, 7.039425956190775 ], [ -73.120514902957083, 7.039447159954918 ], [ -73.120562081332309, 7.03946518315444 ], [ -73.120660148741464, 7.039483736448066 ], [ -73.120736482292386, 7.039499109177069 ], [ -73.120758216150634, 7.039505470306312 ], [ -73.120815466313829, 7.039551588493323 ], [ -73.120966013039251, 7.039677750889976 ], [ -73.121054008660451, 7.03977740858145 ], [ -73.121097476376946, 7.039811864698183 ], [ -73.121137763528822, 7.039838899497465 ], [ -73.121197664162523, 7.039868054673162 ], [ -73.121291490818848, 7.039888728343203 ], [ -73.121374185499008, 7.039879186649339 ], [ -73.121429315285781, 7.039855332414677 ], [ -73.121458470461477, 7.039838369403363 ], [ -73.121506178930801, 7.039790130839936 ], [ -73.121514660436446, 7.039773697922725 ], [ -73.121540104953439, 7.03971538757133 ], [ -73.121545935988578, 7.039687292583841 ], [ -73.121546466082464, 7.03968411201922 ], [ -73.121546466082677, 7.039630572514757 ], [ -73.121543285518058, 7.039601947433163 ], [ -73.121525262318514, 7.039539396328942 ], [ -73.121505118742576, 7.039498579082966 ], [ -73.121476493660978, 7.039445039578504 ], [ -73.121437266697342, 7.039371356498105 ], [ -73.121423484250641, 7.039334780004958 ], [ -73.121422954156543, 7.039316226711332 ], [ -73.121422424062445, 7.039301914170535 ], [ -73.121429845379893, 7.039278059935874 ], [ -73.12143514632092, 7.039269048336113 ], [ -73.12144203754427, 7.03926268720687 ], [ -73.121445748203001, 7.039251025136592 ], [ -73.121441507450172, 7.039239893160416 ], [ -73.121434616226821, 7.039232471842966 ], [ -73.121422424062445, 7.039228231090137 ], [ -73.121404930957027, 7.039233001937069 ], [ -73.121386907757497, 7.039262157112766 ], [ -73.121377896157739, 7.039294492853085 ], [ -73.121380016534147, 7.039339550851889 ], [ -73.12138319709878, 7.039359694427826 ], [ -73.12143514632092, 7.039459882213403 ], [ -73.121469602437656, 7.039521903223522 ], [ -73.121488685825383, 7.039562720469498 ], [ -73.121505648836703, 7.039626861856032 ], [ -73.121502468272084, 7.039687292583841 ], [ -73.121482324696146, 7.039749313593959 ], [ -73.121463771402517, 7.039773167828621 ], [ -73.121424014344754, 7.039811334604079 ], [ -73.12136093314642, 7.039837309215154 ], [ -73.1212978519481, 7.039844200438501 ], [ -73.121243782349538, 7.039837839309258 ], [ -73.121203495197662, 7.039827237427186 ], [ -73.121161617763477, 7.039800732722008 ], [ -73.121094295812327, 7.039759915476032 ], [ -73.121055068848662, 7.039715387571331 ], [ -73.121009480755745, 7.039658137408144 ], [ -73.120965482945152, 7.039621030820893 ], [ -73.120873246571108, 7.039543106987666 ], [ -73.120806984808169, 7.039491157765514 ], [ -73.120781010197092, 7.039471544283682 ], [ -73.120750794833185, 7.039458291931092 ], [ -73.120692484481793, 7.039444509484399 ], [ -73.120602368484199, 7.039429666849498 ], [ -73.120559430861803, 7.03941800477922 ], [ -73.120439099500288, 7.039371356498105 ], [ -73.120356934914241, 7.039336370287268 ], [ -73.120209568753424, 7.039272758994838 ], [ -73.120154438966651, 7.039249964948384 ], [ -73.120067503533662, 7.039220809772686 ], [ -73.119969436124507, 7.039185823561851 ], [ -73.119832671845799, 7.039139175280734 ], [ -73.11972347246045, 7.039101008505277 ], [ -73.119657210697511, 7.039088816340894 ], [ -73.11957239564093, 7.03907185332958 ], [ -73.119451534185302, 7.039045878718505 ], [ -73.119379441387224, 7.0390305059895 ], [ -73.119340214423559, 7.039013012884082 ], [ -73.119328022259168, 7.038997110060975 ], [ -73.119309999059652, 7.038958943285517 ], [ -73.119296746707064, 7.038928727921613 ], [ -73.119258579931611, 7.038844442959142 ], [ -73.119254339178781, 7.038820058630377 ], [ -73.119233665508716, 7.038691245763206 ], [ -73.119234195602829, 7.03866368086982 ], [ -73.119232075226407, 7.038617032588705 ], [ -73.119227834473577, 7.038605370518426 ], [ -73.119221473344339, 7.038597419106872 ], [ -73.119202920050711, 7.038587877413008 ], [ -73.119164223181144, 7.038568794025278 ], [ -73.11913453791135, 7.038555011578586 ], [ -73.119073577089438, 7.038549710637549 ], [ -73.118960667045386, 7.038540168943684 ], [ -73.118850937565938, 7.03853804856727 ], [ -73.118803759190726, 7.038538578661374 ], [ -73.118729546016212, 7.038538578661374 ], [ -73.118662224065048, 7.038532217532131 ], [ -73.118616105878033, 7.038531157343924 ], [ -73.118583770137718, 7.038525326308784 ], [ -73.118525989880425, 7.038507303109263 ], [ -73.118479871693424, 7.03849352066257 ], [ -73.118449126235404, 7.038480798404084 ], [ -73.118416260400991, 7.038455883981215 ], [ -73.118387105225295, 7.038436270499383 ], [ -73.118364841272935, 7.038407115323685 ], [ -73.118365901461132, 7.038387501841854 ], [ -73.118396646919138, 7.038363647607193 ], [ -73.118477751316973, 7.038285723773966 ], [ -73.118518568562962, 7.038238545398747 ], [ -73.118577409008452, 7.038159031283209 ], [ -73.118644200865504, 7.038068385191497 ], [ -73.118695619993545, 7.037997352581617 ], [ -73.118740677992349, 7.037948583924087 ], [ -73.118768242885736, 7.037926850065841 ], [ -73.118894935376503, 7.037847335950302 ], [ -73.118928331305028, 7.037820831245123 ], [ -73.118971799021523, 7.037778423716837 ], [ -73.11900201438543, 7.037722233741857 ], [ -73.119018977396749, 7.037685127154607 ], [ -73.119024278337776, 7.03765756226122 ], [ -73.119039120972658, 7.037572747204646 ], [ -73.119046012196009, 7.037536170711499 ], [ -73.119045482101896, 7.037464077913412 ], [ -73.119044421913699, 7.037317241846719 ], [ -73.119046012196009, 7.037244088860425 ], [ -73.119031169561111, 7.03716934559182 ], [ -73.119003074573627, 7.037032051218992 ], [ -73.118970208739199, 7.036868782235087 ], [ -73.118941053563503, 7.036742619838435 ], [ -73.118928861399127, 7.036693851180905 ], [ -73.118924620646297, 7.036634480641304 ], [ -73.118919319705256, 7.036571929537081 ], [ -73.118925680834508, 7.036495065892062 ], [ -73.118927271116817, 7.036451598175568 ], [ -73.118937342904786, 7.036421382811664 ], [ -73.118950065163276, 7.036371553965927 ], [ -73.118959606857146, 7.036339748319713 ], [ -73.118988231938729, 7.036286208815251 ], [ -73.119003604667739, 7.036262884674693 ], [ -73.119065625677848, 7.036199803476367 ], [ -73.119134007817209, 7.036129831054693 ], [ -73.119284024448532, 7.036005789034455 ], [ -73.11936459875227, 7.035945358306647 ], [ -73.119431390609321, 7.035890758613978 ], [ -73.119457365220399, 7.035863723814695 ], [ -73.119476448608125, 7.035834038544895 ], [ -73.119530518206702, 7.035739681794456 ], [ -73.119567094699846, 7.035674480219715 ], [ -73.119617983733789, 7.03558489431621 ], [ -73.119648729191795, 7.035537715940991 ], [ -73.11969908813164, 7.035484706530633 ], [ -73.119735134530686, 7.035446539755174 ], [ -73.11976057904765, 7.035422685520514 ], [ -73.119800866199526, 7.035407312791509 ], [ -73.119846984386541, 7.035386639121469 ], [ -73.119902644267412, 7.035358014039876 ], [ -73.119992760265049, 7.035341051028563 ], [ -73.120104610120904, 7.035320907452626 ], [ -73.120163980660507, 7.035308715288244 ], [ -73.120205858094678, 7.035302884253105 ], [ -73.120255156846312, 7.035289631900516 ], [ -73.12029491390409, 7.03528009020665 ], [ -73.120391391030921, 7.035254645689678 ], [ -73.12048256721674, 7.035232381737328 ], [ -73.120571092932039, 7.035209587690874 ], [ -73.12062834309522, 7.035194214961869 ], [ -73.120701496081509, 7.035175131574141 ], [ -73.120802744055297, 7.035150747245376 ], [ -73.120846211771791, 7.035132724045853 ], [ -73.120944279180947, 7.035079184541392 ], [ -73.12101319141442, 7.035041017765934 ], [ -73.121087934683018, 7.03499755004944 ], [ -73.121128221834894, 7.034959913368086 ], [ -73.121188652562722, 7.034898952546174 ], [ -73.121270817148783, 7.034821028712947 ], [ -73.121301562606789, 7.034786042502111 ], [ -73.121352451640718, 7.034712359421713 ], [ -73.121408641615702, 7.034636025870797 ], [ -73.121437266697299, 7.034592558154302 ], [ -73.121517841001022, 7.034463745287132 ], [ -73.121556007776491, 7.034400133994701 ], [ -73.121595234740155, 7.034326450914303 ], [ -73.121676339137991, 7.034182795412232 ], [ -73.121722457325006, 7.034090559038209 ], [ -73.121746841653774, 7.034038079721954 ], [ -73.121849679909872, 7.033875340832155 ], [ -73.121878835085568, 7.033835583774387 ], [ -73.121913821296388, 7.033799007281239 ], [ -73.121950927883645, 7.033771442387852 ], [ -73.121992275223718, 7.03373274551829 ], [ -73.122034682752016, 7.033705180624904 ], [ -73.122078150468511, 7.033695108836936 ], [ -73.122129569596552, 7.033686627331279 ], [ -73.122167206277908, 7.033681326390243 ], [ -73.122203782771052, 7.033690337990005 ], [ -73.122290188109943, 7.033713662130562 ], [ -73.12236546147264, 7.03372956495367 ], [ -73.122405748624516, 7.033741227023948 ], [ -73.122434903800212, 7.033742287212156 ], [ -73.122495334528011, 7.033728504765462 ], [ -73.122521309139088, 7.033719493165702 ], [ -73.122546223561955, 7.03370730100132 ], [ -73.122561066196852, 7.033696699119248 ], [ -73.122583330149212, 7.033677615731519 ], [ -73.122699950851981, 7.033591740486739 ], [ -73.122836715130717, 7.033492612889369 ], [ -73.122950155268882, 7.033409918209211 ], [ -73.122979310444578, 7.033392955197896 ], [ -73.123038150890068, 7.033379172751202 ], [ -73.123111833970469, 7.033377052374787 ], [ -73.123197179121149, 7.033382883409926 ], [ -73.123331823023463, 7.033388714445067 ], [ -73.123400735256922, 7.033394545480206 ], [ -73.123471237772705, 7.033401436703553 ], [ -73.12351311520689, 7.033401436703553 ], [ -73.123538559723855, 7.03339507557431 ], [ -73.123568775087762, 7.033382353315824 ], [ -73.123699708331372, 7.033345776822677 ], [ -73.123732044071687, 7.033334114752398 ], [ -73.123762789529692, 7.033308670235426 ], [ -73.123815268845945, 7.033269443271761 ], [ -73.123841773551135, 7.033243998754789 ], [ -73.123859266656552, 7.033221734802439 ], [ -73.123867748162198, 7.033195760191362 ], [ -73.123900083902527, 7.03309928306451 ], [ -73.12393560020746, 7.033063236665467 ], [ -73.123952563218779, 7.033047333842359 ], [ -73.123981718394475, 7.033040442619013 ], [ -73.12409091777981, 7.033015528196144 ], [ -73.124153998978144, 7.033000155467141 ], [ -73.124204357917975, 7.032980541985308 ], [ -73.124251536293201, 7.03296304887989 ], [ -73.124287582692233, 7.032943435398056 ], [ -73.124337941632078, 7.032916930692877 ], [ -73.124350663890567, 7.032905268622597 ], [ -73.124353844455186, 7.032896257022837 ], [ -73.124350663890567, 7.032884594952558 ], [ -73.124342182384908, 7.032875053258693 ], [ -73.124332640691037, 7.032873993070486 ], [ -73.12431355730331, 7.032880884293832 ], [ -73.124251536293187, 7.032920111257498 ], [ -73.124211779235424, 7.032933363610088 ], [ -73.124128554461166, 7.032960928503473 ], [ -73.12407289458028, 7.032977891514788 ], [ -73.123992320276528, 7.032995384620208 ], [ -73.123949912748245, 7.033004396219969 ], [ -73.123933479831024, 7.033014998102041 ], [ -73.123918107102028, 7.033027720360526 ], [ -73.12389266258505, 7.03304892412467 ], [ -73.123880470420673, 7.033064826947777 ], [ -73.123869338444493, 7.033080199676782 ], [ -73.123855025903694, 7.033106174287857 ], [ -73.123823220257506, 7.03318515830929 ], [ -73.123814208657748, 7.033198940755983 ], [ -73.123793004893599, 7.033220144520126 ], [ -73.123760669153285, 7.033255660825066 ], [ -73.123729923695279, 7.033282695624349 ], [ -73.123705009272399, 7.033302309106181 ], [ -73.123681685131842, 7.03331397117646 ], [ -73.123662071650017, 7.033317681835185 ], [ -73.12363609703894, 7.033322982776221 ], [ -73.123527957841816, 7.033351077763711 ], [ -73.123491381348657, 7.033360089363472 ], [ -73.123459575702455, 7.033361149551679 ], [ -73.123431480714956, 7.033358499081161 ], [ -73.123362038387384, 7.033352137951918 ], [ -73.123288885401095, 7.033347367104986 ], [ -73.123242237119982, 7.033343656446261 ], [ -73.123214142132483, 7.033343126352158 ], [ -73.123160602628019, 7.033339945787537 ], [ -73.123096991335586, 7.033335705034708 ], [ -73.12306518568937, 7.033335174940604 ], [ -73.123045042113432, 7.033336765222916 ], [ -73.123014296655427, 7.033342596258055 ], [ -73.12299097251487, 7.033347367104986 ], [ -73.122964467809695, 7.033351077763712 ], [ -73.122947504798375, 7.033358499081162 ], [ -73.122931601975267, 7.033369100963234 ], [ -73.122892905105701, 7.033398256138931 ], [ -73.122860039271288, 7.033421050185384 ], [ -73.122725925463072, 7.033522298159169 ], [ -73.122576438925861, 7.033633087826818 ], [ -73.122536151774, 7.03366595366124 ], [ -73.122519188762681, 7.033678675919726 ], [ -73.122507526692402, 7.033683446766658 ], [ -73.122489503492886, 7.033689807895901 ], [ -73.122433313517902, 7.033700939872077 ], [ -73.122414760224274, 7.03370146996618 ], [ -73.122394616648336, 7.033697229213351 ], [ -73.122311921968191, 7.033674965261001 ], [ -73.122224986535201, 7.033655351779169 ], [ -73.122184699383325, 7.033643159614787 ], [ -73.122168266466119, 7.033641569332476 ], [ -73.122144942325562, 7.033641569332476 ], [ -73.122117377432176, 7.033646340179408 ], [ -73.12206436802181, 7.033652701308651 ], [ -73.122027791528666, 7.033656942061481 ], [ -73.122001816917589, 7.033671254602278 ], [ -73.121947747319027, 7.033718432977497 ], [ -73.121888906873522, 7.033770382199648 ], [ -73.121852860474476, 7.033801657751759 ], [ -73.121783418146904, 7.033896014502197 ], [ -73.121733589301172, 7.033977118900046 ], [ -73.121701783654956, 7.034029598216301 ], [ -73.121662026597193, 7.034115473461081 ], [ -73.121625450104048, 7.034188096353271 ], [ -73.121576151352414, 7.034272381315741 ], [ -73.121490806201734, 7.034423988229366 ], [ -73.12137736606357, 7.034606340600998 ], [ -73.121311634394729, 7.034697516786816 ], [ -73.121259155078477, 7.034773850337731 ], [ -73.121220458208924, 7.03481201711319 ], [ -73.121158437198801, 7.034872977935101 ], [ -73.121097476376889, 7.034931818380599 ], [ -73.121063020260152, 7.034962563838607 ], [ -73.121035985460864, 7.034978466661714 ], [ -73.120870596100559, 7.035071233129842 ], [ -73.120815996407885, 7.03510197858785 ], [ -73.120803804243494, 7.035105689246574 ], [ -73.120767227750349, 7.035113110564025 ], [ -73.120641065353709, 7.035147566680757 ], [ -73.120506951545494, 7.035180962609282 ], [ -73.120414715171478, 7.03520428674984 ], [ -73.120343682561597, 7.035224430325776 ], [ -73.120185184424628, 7.035258886442509 ], [ -73.120124753696814, 7.035272138795099 ], [ -73.120036227981515, 7.035289631900517 ], [ -73.119951412924948, 7.035304474535418 ], [ -73.119903704455609, 7.035312956041075 ], [ -73.119867127962465, 7.035321437546733 ], [ -73.119826310716491, 7.035345291781394 ], [ -73.119754217918398, 7.035376037239402 ], [ -73.119738845189403, 7.035387169215577 ], [ -73.119716581237043, 7.035405722509203 ], [ -73.119643428250782, 7.03548364634243 ], [ -73.119603671193019, 7.035527114058924 ], [ -73.11958405771118, 7.035554678952311 ], [ -73.119543770559304, 7.035634193067848 ], [ -73.119524157077478, 7.035669179278685 ], [ -73.119480689360969, 7.0357455128296 ], [ -73.119443052679614, 7.035809654216134 ], [ -73.11942025863317, 7.035845170521074 ], [ -73.11941177712751, 7.035856302497249 ], [ -73.119361418187665, 7.035894999366811 ], [ -73.119294626330614, 7.035945888400755 ], [ -73.11917270468679, 7.036063039197647 ], [ -73.119103262359218, 7.036116578702109 ], [ -73.119044421913713, 7.036173828865296 ], [ -73.1189839911859, 7.036226838275654 ], [ -73.118960136951245, 7.036258643921869 ], [ -73.118924090552198, 7.036334447378682 ], [ -73.118883803400323, 7.03643039441143 ], [ -73.118880622835704, 7.036498246456689 ], [ -73.118886453870843, 7.03659313330123 ], [ -73.118894935376503, 7.036700212310154 ], [ -73.11890553725857, 7.036760112943859 ], [ -73.118934162340167, 7.036881504493581 ], [ -73.118965967986369, 7.037023569713341 ], [ -73.118997243538487, 7.037185248414933 ], [ -73.119009435702864, 7.037239848107602 ], [ -73.119008375514667, 7.037268473189196 ], [ -73.119012086173399, 7.037478920548319 ], [ -73.119010495891089, 7.037543061934852 ], [ -73.118987171750533, 7.037650140943776 ], [ -73.118967028174566, 7.037713222142103 ], [ -73.118944234128122, 7.037758810235011 ], [ -73.118903946976246, 7.037798567292779 ], [ -73.11878255542652, 7.037871720279074 ], [ -73.118712052910752, 7.037924729689433 ], [ -73.118659043500386, 7.037987280793655 ], [ -73.118589071078745, 7.038067855097402 ], [ -73.118532881103761, 7.038159031283217 ], [ -73.118445415576659, 7.038251797751344 ], [ -73.118400887671967, 7.038305337255806 ], [ -73.118359010237782, 7.038349335066403 ], [ -73.118318192991808, 7.038383791183136 ], [ -73.118235498311648, 7.038434680217081 ], [ -73.118042013963844, 7.038542819414212 ], [ -73.11799271521221, 7.03857356487222 ], [ -73.117917971943598, 7.038644067387996 ], [ -73.117835807357537, 7.038720400938912 ], [ -73.117743570983507, 7.038804685901384 ], [ -73.117672538373625, 7.03887518841716 ], [ -73.117616878492754, 7.038929788109829 ], [ -73.117593554352197, 7.038970605355805 ], [ -73.117512449954361, 7.039124862739947 ], [ -73.117389998216424, 7.039383548662496 ], [ -73.117267546478502, 7.039634813267593 ], [ -73.11717424991626, 7.039830417991816 ], [ -73.117045967143184, 7.040100765984644 ], [ -73.116987126697694, 7.040223747816674 ], [ -73.116912383429096, 7.040339308331256 ], [ -73.116852482795395, 7.040390727459304 ], [ -73.116711477763843, 7.040508408350298 ], [ -73.116634614118823, 7.04054869550217 ], [ -73.116504741063451, 7.040604355383046 ], [ -73.116343592455976, 7.040665846299062 ], [ -73.116247645423201, 7.040703482980416 ], [ -73.116196226295159, 7.040726807120974 ], [ -73.116104520015227, 7.04079571935444 ], [ -73.116041438816907, 7.040837066694519 ], [ -73.115950262631088, 7.040919231280575 ], [ -73.115843713716274, 7.041028960760016 ], [ -73.115814028446465, 7.041069247911889 ], [ -73.115772151012294, 7.041138690239459 ], [ -73.115694227179063, 7.041272273953562 ], [ -73.115626905227913, 7.041395785879696 ], [ -73.115594569487598, 7.041463637924955 ], [ -73.115576546288068, 7.041494383382963 ], [ -73.115550041582893, 7.041518767711727 ], [ -73.115442962573965, 7.041608353615234 ], [ -73.115245237473331, 7.041760490622962 ], [ -73.115136568182095, 7.041847956150053 ], [ -73.115035320208335, 7.041928000359695 ], [ -73.114969058445382, 7.041995852404953 ], [ -73.114937252799166, 7.042036139556825 ], [ -73.114824872849212, 7.042147459318578 ], [ -73.114776104191677, 7.042197288164314 ], [ -73.11474588882777, 7.042228033622322 ], [ -73.114644110759883, 7.042302246796824 ], [ -73.114556645232796, 7.042361087242321 ], [ -73.114214204441893, 7.042581606389412 ], [ -73.114002696894545, 7.042717840574033 ], [ -73.113789068970817, 7.042864676640726 ], [ -73.113715385890416, 7.042915035580567 ], [ -73.113541515024437, 7.043050209576981 ], [ -73.113333718135834, 7.043204997055227 ], [ -73.113240421573607, 7.043273379194589 ], [ -73.113192183010185, 7.0433046547467 ], [ -73.113128571717752, 7.043336460392915 ], [ -73.112944098969692, 7.043428166672835 ], [ -73.112565611779729, 7.043606278291638 ], [ -73.112455882300281, 7.043661408078411 ], [ -73.112375838090642, 7.043689503065901 ], [ -73.112034987582049, 7.04383580903849 ], [ -73.111967665630885, 7.043860723461359 ], [ -73.1117773618477, 7.043924864847892 ], [ -73.111245147367697, 7.044093964866936 ], [ -73.111094070548162, 7.044131071454187 ], [ -73.110938222881714, 7.044189381805581 ], [ -73.110866130083622, 7.044218536981278 ], [ -73.110682717523787, 7.044309713167094 ], [ -73.110465909035398, 7.044418382458329 ], [ -73.110091662598279, 7.044589602853785 ], [ -73.10998246321293, 7.044631480287969 ], [ -73.109916731544089, 7.044652153958008 ], [ -73.109799050653095, 7.044686079980638 ], [ -73.109667587315414, 7.044727957414821 ], [ -73.109529762848481, 7.044759763061037 ], [ -73.109431695439326, 7.044777786260558 ], [ -73.109272667208231, 7.044796869648288 ], [ -73.109129011706159, 7.04480906181267 ], [ -73.108926515758597, 7.044820723882948 ], [ -73.108717658681783, 7.044830795670916 ], [ -73.108546438286325, 7.044838216988366 ], [ -73.108445190312537, 7.044850409152748 ], [ -73.108310546410237, 7.044857300376096 ], [ -73.108100629145213, 7.044851469340957 ], [ -73.107997790889129, 7.044847758682232 ], [ -73.107880109998121, 7.044836096611952 ], [ -73.107789994000512, 7.044825494729881 ], [ -73.107716310920111, 7.04481648313012 ], [ -73.107619833793265, 7.044812772471395 ], [ -73.107516995537182, 7.044817013224223 ], [ -73.107365918717676, 7.044830265576812 ], [ -73.107250358203089, 7.044856770281991 ], [ -73.107173494558069, 7.044890166210517 ], [ -73.106977889833843, 7.044976571549403 ], [ -73.106628027725478, 7.045131359027648 ], [ -73.10634919822698, 7.045252220483266 ], [ -73.106000926400924, 7.04540806814972 ], [ -73.105680219468255, 7.045548012993065 ], [ -73.105595934505786, 7.045586709862627 ], [ -73.105563068671358, 7.045608973814978 ], [ -73.105486205026338, 7.045675765672031 ], [ -73.105440616933436, 7.045713932447488 ], [ -73.105321345760132, 7.045879851901908 ], [ -73.105186701857832, 7.046095070107963 ], [ -73.105127331318243, 7.046186246293779 ], [ -73.105108247930502, 7.04623077419848 ], [ -73.105024493062132, 7.046450233157364 ], [ -73.104963002146107, 7.046652729104933 ], [ -73.104876066713132, 7.046929438227003 ], [ -73.104837899937678, 7.047029095918477 ], [ -73.104770047892416, 7.047129813798158 ], [ -73.104678871706597, 7.047248554877361 ], [ -73.104613670131855, 7.047346622286523 ], [ -73.104492278582143, 7.047506180611702 ], [ -73.104334840633399, 7.047710796935685 ], [ -73.104219280118812, 7.047861343661102 ], [ -73.104160969767406, 7.047937677212018 ], [ -73.104120682615545, 7.047984325493134 ], [ -73.104038518029483, 7.048048466879668 ], [ -73.103908644974112, 7.048145474100624 ], [ -73.103907054691803, 7.048146004194726 ], [ -73.103696607332679, 7.048303442143492 ], [ -73.103516905431562, 7.048437025857595 ], [ -73.103440041786541, 7.0484969264913 ], [ -73.103403465293397, 7.048527141855204 ], [ -73.10323860602719, 7.048672917733689 ], [ -73.103109793160016, 7.048789538436477 ], [ -73.103008545186242, 7.048882834998709 ], [ -73.10297249878721, 7.048901388292334 ], [ -73.102807109426891, 7.048980902407871 ], [ -73.102729715687758, 7.049009527489465 ], [ -73.102570157362564, 7.049063066993927 ], [ -73.102411659225595, 7.049109185180939 ], [ -73.102305640404879, 7.049155303367949 ], [ -73.102225596195225, 7.049176507132093 ], [ -73.102031581753323, 7.049277755105878 ], [ -73.101925562932607, 7.049341366398308 ], [ -73.101807882041612, 7.04943625324285 ], [ -73.101622879199468, 7.049592631003406 ], [ -73.101575700824242, 7.049630797778864 ], [ -73.101496186708715, 7.049677446059979 ], [ -73.101306413019614, 7.049795657045078 ], [ -73.101045076626548, 7.049960516311293 ], [ -73.100935877241241, 7.050025717886034 ], [ -73.100680901977412, 7.05018209564659 ], [ -73.100380338620681, 7.050359147077188 ], [ -73.100266898482502, 7.050431769969379 ], [ -73.100135965238948, 7.05052082577878 ], [ -73.099939300326511, 7.050642747422605 ], [ -73.09961912348794, 7.050828810452963 ], [ -73.099395423776244, 7.050947551532165 ], [ -73.099170133782224, 7.051066822705471 ], [ -73.099060934396888, 7.051124072868658 ], [ -73.098904026542215, 7.051236452818618 ], [ -73.098640569772726, 7.051426226507701 ], [ -73.098203772231372, 7.051756475134233 ], [ -73.098038382871067, 7.051868855084193 ], [ -73.097882535204604, 7.051991836916224 ], [ -73.097787648360068, 7.052055978302757 ], [ -73.097622258999763, 7.052136552606503 ], [ -73.09748761509745, 7.052192212487379 ], [ -73.09732646648996, 7.052243101521323 ], [ -73.097171148917639, 7.05228868961423 ], [ -73.097000458616279, 7.052355481471282 ], [ -73.09688118744296, 7.052412201540367 ], [ -73.096779409375074, 7.052470511891761 ], [ -73.09662939274375, 7.052586602500446 ], [ -73.096320347881345, 7.052860661151998 ], [ -73.096134814945117, 7.053020219477178 ], [ -73.096062192052926, 7.053077469640365 ], [ -73.096031446594907, 7.053105564627855 ], [ -73.095992219631242, 7.053128888768413 ], [ -73.095955643138097, 7.053151682814867 ], [ -73.095790253777778, 7.053256111353272 ], [ -73.09571551050918, 7.053295338316937 ], [ -73.095591998583018, 7.053357359327057 ], [ -73.095481208915373, 7.053404007608172 ], [ -73.095380491035698, 7.053442704477734 ], [ -73.095315289460956, 7.053465498524188 ], [ -73.095202909510988, 7.053497834264506 ], [ -73.095134527371627, 7.053521158405063 ], [ -73.095002003845735, 7.053558795086418 ], [ -73.094902876248355, 7.053601732708807 ], [ -73.094784135169149, 7.05364944117813 ], [ -73.094707271524129, 7.053689198235899 ], [ -73.094652141737356, 7.053727365011357 ], [ -73.094551953951793, 7.053799457809444 ], [ -73.094385504403277, 7.053918728982751 ], [ -73.094284786523588, 7.054002483851118 ], [ -73.094129468951223, 7.054130766624184 ], [ -73.09407592944676, 7.054181655658128 ], [ -73.094041473330037, 7.054210810833825 ], [ -73.093973621284775, 7.054260109585459 ], [ -73.093876083969704, 7.054315769466335 ], [ -73.093660335669554, 7.054452003650956 ], [ -73.093438756334265, 7.054597779529441 ], [ -73.093362952877442, 7.054650258845697 ], [ -73.093277607726748, 7.054696907126811 ], [ -73.093098435919742, 7.054797625006492 ], [ -73.092987646252098, 7.054854345075575 ], [ -73.092853532443868, 7.054912655426969 ], [ -73.092692383836379, 7.054985808413264 ], [ -73.092514272217571, 7.055052600270315 ], [ -73.092409313585065, 7.055086526292945 ], [ -73.092064222323629, 7.055205267372147 ], [ -73.09190148343383, 7.055256686500195 ], [ -73.091740864920439, 7.05529008242872 ], [ -73.091573355183698, 7.055315526945693 ], [ -73.091449843257564, 7.055336200615733 ], [ -73.091297706249833, 7.05535051315653 ], [ -73.091215011569673, 7.055354223815256 ], [ -73.091067115314772, 7.055360054850395 ], [ -73.090792526569118, 7.055353693721151 ], [ -73.090741107441062, 7.0553611150386 ], [ -73.090667954454773, 7.055377017861709 ], [ -73.090499384529821, 7.055402992472784 ], [ -73.090460157566156, 7.055423666142824 ], [ -73.090398136556033, 7.055465013482903 ], [ -73.090353078557229, 7.05550158997605 ], [ -73.090340356298753, 7.055524914116608 ], [ -73.090320742816928, 7.055636233878361 ], [ -73.090319682628717, 7.055722639217245 ], [ -73.090321272911027, 7.055803213520989 ], [ -73.090308550652551, 7.055879547071905 ], [ -73.090300069146892, 7.055980264951586 ], [ -73.090290527453007, 7.056111728289275 ], [ -73.090266673218352, 7.056176929864016 ], [ -73.090207832772862, 7.056344439600748 ], [ -73.090160654397636, 7.056452048703775 ], [ -73.090107114893172, 7.056571849971186 ], [ -73.090076369435167, 7.056620088534611 ], [ -73.089998975696034, 7.056709674438117 ], [ -73.089894017063529, 7.056833186364251 ], [ -73.089797539936669, 7.056948746878833 ], [ -73.089751421749682, 7.057005466947917 ], [ -73.08970583365678, 7.057063247205208 ], [ -73.089677208575182, 7.057109365392219 ], [ -73.089633740858687, 7.057171386402339 ], [ -73.089570659660382, 7.057287477011023 ], [ -73.089543094766995, 7.057345257268313 ], [ -73.089464110745553, 7.057496334087835 ], [ -73.089322045525805, 7.057766151986558 ], [ -73.08926744583313, 7.057868990242654 ], [ -73.089237230469223, 7.057899735700662 ], [ -73.089120079672327, 7.058003104050859 ], [ -73.089030493768831, 7.058070426002014 ], [ -73.088947268994559, 7.058136157670859 ], [ -73.088855032620543, 7.058189167081216 ], [ -73.088784530104761, 7.058216201880499 ], [ -73.088759085587796, 7.058222563009742 ], [ -73.088686992789704, 7.058221502821534 ], [ -73.088637163943972, 7.058211431033566 ], [ -73.088533265499663, 7.05815577115269 ], [ -73.088474955148257, 7.058110713153885 ], [ -73.088411873949937, 7.05803437960297 ], [ -73.088368936327541, 7.057986671133647 ], [ -73.088339251057747, 7.057963346993089 ], [ -73.088296313435364, 7.057934721911497 ], [ -73.08825125543656, 7.057923059841219 ], [ -73.088242773930901, 7.057924120029425 ], [ -73.088201956684927, 7.057926770499944 ], [ -73.088141525957113, 7.057953275205123 ], [ -73.088094877675999, 7.057994092451099 ], [ -73.088068372970824, 7.058046571767354 ], [ -73.088048759488984, 7.058098520989504 ], [ -73.088060951653375, 7.058138808141377 ], [ -73.088135694921974, 7.058261789973407 ], [ -73.088173331603329, 7.058321690607113 ], [ -73.088265037883247, 7.058420818204483 ], [ -73.088310095882051, 7.058459515074045 ], [ -73.088455341666432, 7.058530017589821 ], [ -73.088529554840946, 7.058568714459382 ], [ -73.088614369897513, 7.058627554904879 ], [ -73.088782409728353, 7.058736754290218 ], [ -73.088848671491306, 7.058784992853644 ], [ -73.088971123229243, 7.058863446780975 ], [ -73.089083503179197, 7.05893819004958 ], [ -73.089172558988594, 7.05899597030687 ], [ -73.089390427665165, 7.059144396655873 ], [ -73.089474182533536, 7.059206947760096 ], [ -73.089572249942691, 7.059289642440255 ], [ -73.089675618292901, 7.059370216744 ], [ -73.089748241185092, 7.059427997001291 ], [ -73.089912040263101, 7.059559990433081 ], [ -73.090010637766369, 7.059638974454516 ], [ -73.090081140282138, 7.059695694523599 ], [ -73.09014475157457, 7.059744993275232 ], [ -73.090296888582316, 7.059866914919056 ], [ -73.090393895803274, 7.059942718375869 ], [ -73.090515817447098, 7.060040255690928 ], [ -73.090649401161173, 7.060149985170369 ], [ -73.090849246638228, 7.060306893025031 ], [ -73.090944133482765, 7.060381106199532 ], [ -73.091015696186759, 7.060438886456823 ], [ -73.09116094197114, 7.060560278006544 ], [ -73.091231444486922, 7.060612757322798 ], [ -73.091317849825799, 7.060671067674193 ], [ -73.091458324763252, 7.060746341036901 ], [ -73.091576005654247, 7.060820024117299 ], [ -73.091718070874009, 7.060914380867737 ], [ -73.091861196281968, 7.061016158935625 ], [ -73.091971985949613, 7.061087721639609 ], [ -73.092037717618467, 7.061139140767657 ], [ -73.092117231733994, 7.06120328215419 ], [ -73.09223014177806, 7.061291277775385 ], [ -73.092325558716709, 7.061378743302476 ], [ -73.092388109820931, 7.061429102242316 ], [ -73.092448540548745, 7.061473100052914 ], [ -73.092585304827466, 7.061575938309009 ], [ -73.092665879131204, 7.061633188472196 ], [ -73.092722069106188, 7.061675065906379 ], [ -73.092829678209227, 7.061755640210124 ], [ -73.092929865994805, 7.061827202914108 ], [ -73.093084653473042, 7.061936932393549 ], [ -73.093197563517094, 7.062018036791397 ], [ -73.093309943467062, 7.062095960624624 ], [ -73.093394228429531, 7.062158511728846 ], [ -73.093591953530179, 7.062302167230917 ], [ -73.093768474866664, 7.062423558780638 ], [ -73.093928563285957, 7.062539119295219 ], [ -73.094075399352647, 7.062645668210039 ], [ -73.094268353606324, 7.062781902394661 ], [ -73.094450705977962, 7.062914425920558 ], [ -73.094607613832622, 7.063023625305895 ], [ -73.094867359943379, 7.063205977677528 ], [ -73.094954295376368, 7.063260047276094 ], [ -73.095093180031498, 7.063353343838323 ], [ -73.095162622359069, 7.06339575136661 ], [ -73.095236835533569, 7.0634238463541 ], [ -73.095333312660429, 7.063442399647725 ], [ -73.09546212552759, 7.063476325670354 ], [ -73.095607371311971, 7.06348745764653 ], [ -73.0957277026735, 7.063501770187326 ], [ -73.096038867912299, 7.06350230028143 ], [ -73.096416825008163, 7.063500179905016 ], [ -73.09671579808257, 7.063500179905016 ], [ -73.096878536972369, 7.063504420657845 ], [ -73.096985085887184, 7.063502300281431 ], [ -73.097094815366646, 7.063506541034259 ], [ -73.097323816019383, 7.063522443857366 ], [ -73.097410221358274, 7.063529865174816 ], [ -73.097659895681048, 7.063564321291549 ], [ -73.09774312045532, 7.06359241627904 ], [ -73.098113126139623, 7.063703205946689 ], [ -73.098453446554132, 7.063799683073541 ], [ -73.098933711811966, 7.063960831681031 ], [ -73.099184976417064, 7.064029743914496 ], [ -73.099237985827429, 7.064046706925811 ], [ -73.099312199001929, 7.064044586549397 ], [ -73.099576185865516, 7.064049887490432 ], [ -73.099795644824397, 7.064053068055054 ], [ -73.099908024774351, 7.064044586549397 ], [ -73.100088256769567, 7.06402868372629 ], [ -73.100255766506294, 7.064011720714976 ], [ -73.100411614172756, 7.063983095633382 ], [ -73.100556859957123, 7.063965072433859 ], [ -73.10089505999521, 7.063901461141429 ], [ -73.101174949681905, 7.063842090601828 ], [ -73.101328676971946, 7.063809224767406 ], [ -73.101420913345962, 7.063782720062227 ], [ -73.101625529669946, 7.063739252345732 ], [ -73.101783497712816, 7.063707446699517 ], [ -73.10190541935664, 7.063688363311788 ], [ -73.102014618741975, 7.063665039171232 ], [ -73.102230897136238, 7.063630052960395 ], [ -73.10231677238103, 7.063618390890116 ], [ -73.102389925367319, 7.063608849196251 ], [ -73.102546833221965, 7.063590825996729 ], [ -73.102711162394073, 7.063570682420793 ], [ -73.102973028881237, 7.06353463602175 ], [ -73.103338793812711, 7.063490108117049 ], [ -73.103627165005065, 7.063458302470834 ], [ -73.103872068480911, 7.063426496824619 ], [ -73.104048059723297, 7.063399992119439 ], [ -73.104351273550549, 7.063361825343981 ], [ -73.104696894906112, 7.063314116874658 ], [ -73.104856983325391, 7.063269588969958 ], [ -73.105328767077566, 7.063140246008683 ], [ -73.105489915685055, 7.063086176410118 ], [ -73.105893847391982, 7.06294729175498 ], [ -73.106202362160275, 7.062832791428606 ], [ -73.10637305246162, 7.062772360700797 ], [ -73.106857558472299, 7.062586827764543 ], [ -73.107344184859386, 7.062400234640082 ], [ -73.107578486453178, 7.062307998266058 ], [ -73.107891241974301, 7.062188196998648 ], [ -73.108073594345939, 7.062116104200561 ], [ -73.108267608787855, 7.062046131778888 ], [ -73.108416035136855, 7.061993122368529 ], [ -73.108801943644266, 7.061853177525183 ], [ -73.108976874698442, 7.061787445856338 ], [ -73.109157106693658, 7.061725954940323 ], [ -73.109691441550069, 7.06155526463897 ], [ -73.109970271048553, 7.061477870899846 ], [ -73.110094313068799, 7.06144288468901 ], [ -73.110336035980026, 7.06140895866638 ], [ -73.110587300585124, 7.061394116031479 ], [ -73.110776014085999, 7.061385634525823 ], [ -73.111000773985921, 7.061372912267337 ], [ -73.111234015391503, 7.061360190008851 ], [ -73.111395163998992, 7.061353828879608 ], [ -73.111483159620192, 7.061352768691401 ], [ -73.111653849921538, 7.061334745491879 ], [ -73.111857406057325, 7.06131566210415 ], [ -73.112010073159155, 7.061305060222079 ], [ -73.11211503179166, 7.061297638904628 ], [ -73.11242566693636, 7.061278555516899 ], [ -73.112610139684406, 7.061265833258413 ], [ -73.112911233135236, 7.061248870247098 ], [ -73.113056478919631, 7.061243569306063 ], [ -73.113322586159626, 7.061226606294748 ], [ -73.113557947941615, 7.061221305353712 ], [ -73.11375514294815, 7.061208583095226 ], [ -73.114043514140491, 7.061204342342398 ], [ -73.114567247114834, 7.061162995002318 ], [ -73.114939373175531, 7.061142851426382 ], [ -73.115184276651391, 7.061113166156582 ], [ -73.115466286714508, 7.061093022580645 ], [ -73.115685745673403, 7.06107605956933 ], [ -73.115952913101594, 7.061060156746222 ], [ -73.116184034130754, 7.061048494675942 ], [ -73.116347303114665, 7.061047434487736 ], [ -73.116463923817449, 7.061047434487736 ], [ -73.116810605361195, 7.061051675240566 ], [ -73.117095795988917, 7.06106863825188 ], [ -73.11723892139689, 7.061085601263194 ], [ -73.117594084446281, 7.061146031991002 ], [ -73.117752052489152, 7.061187379331082 ], [ -73.118053145939996, 7.061278555516898 ], [ -73.118618226254412, 7.061459847700323 ], [ -73.119137718475926, 7.061635838942713 ], [ -73.119178005627802, 7.061625237060642 ], [ -73.119220413156086, 7.06159237122622 ], [ -73.119266001248988, 7.061547843321518 ], [ -73.119311589341905, 7.061475750523431 ], [ -73.119330672729632, 7.061410018854587 ], [ -73.119331732917857, 7.061181018201839 ], [ -73.119331732917857, 7.060972161125027 ], [ -73.119333853294265, 7.060806771764709 ], [ -73.119334913482476, 7.060655164851084 ], [ -73.119323251412197, 7.060612757322797 ], [ -73.11927660313107, 7.060452668903516 ], [ -73.119196028827332, 7.060154756017303 ], [ -73.11911545452358, 7.059858963507502 ], [ -73.119059264548611, 7.059668129630213 ], [ -73.118978690244859, 7.059397781637385 ], [ -73.118936282716575, 7.059259957170453 ], [ -73.118793157308616, 7.058795594735715 ], [ -73.118767712791637, 7.058726682502249 ], [ -73.118723184886932, 7.058645048010298 ], [ -73.118658513406302, 7.058610061799461 ], [ -73.118517508374751, 7.058589918223525 ], [ -73.118439054447407, 7.05858461728249 ], [ -73.118343637508772, 7.058587797847111 ], [ -73.118229137182396, 7.058624904434362 ], [ -73.117920622414104, 7.058711839867349 ], [ -73.117546375976985, 7.05881255774703 ], [ -73.117076712601204, 7.058949322025755 ], [ -73.116829688748936, 7.059022475012049 ], [ -73.116494669275468, 7.059128493832766 ], [ -73.116389710642963, 7.05916454023181 ], [ -73.116301715021763, 7.05920164681906 ], [ -73.116249765799623, 7.059247234911968 ], [ -73.116237573635232, 7.059259427076351 ], [ -73.116229622223685, 7.059259957170455 ], [ -73.116222200906236, 7.059251475664797 ], [ -73.116204707800804, 7.059225501053722 ], [ -73.11618350403667, 7.059209598230614 ], [ -73.116177142907432, 7.05920164681906 ], [ -73.11617767300153, 7.0591926352193 ], [ -73.116206828177226, 7.059182563431332 ], [ -73.116487778052118, 7.05910251922169 ], [ -73.116610759884153, 7.059062232069818 ], [ -73.116834459595864, 7.058992789742248 ], [ -73.11696009189842, 7.058950912308066 ], [ -73.117047027331409, 7.058927058073404 ], [ -73.11740219038083, 7.058815208217548 ], [ -73.11765451517411, 7.058741525137149 ], [ -73.118009678223515, 7.058637626692848 ], [ -73.118371202402159, 7.058536908813166 ], [ -73.118458667929247, 7.058510404107987 ], [ -73.118497364798813, 7.058504042978744 ], [ -73.118575818726143, 7.058493441096672 ], [ -73.118609214654668, 7.058484429496912 ], [ -73.118626707760086, 7.058472767426633 ], [ -73.118642080489082, 7.058445202533247 ], [ -73.118659043500386, 7.058431950180657 ], [ -73.118679187076324, 7.058425058957311 ], [ -73.118710992722541, 7.058422938580896 ], [ -73.118731666392577, 7.058427709427828 ], [ -73.118749159497938, 7.058442552062728 ], [ -73.118763472038793, 7.058467996579701 ], [ -73.118776724391381, 7.058501392508227 ], [ -73.118800048531938, 7.058580376529661 ], [ -73.118844576436643, 7.058735694102011 ], [ -73.118868430671313, 7.058810437370616 ] ] } }
]
}
