{
"type": "FeatureCollection",
"name": "5k",
"crs": { "type": "name", "properties": { "name": "urn:ogc:def:crs:OGC:1.3:CRS84" } },
"features": [
{ "type": "Feature", "properties": { "fid": 1 }, "geometry": { "type": "LineString", "coordinates": [ [ -73.11927660313097, 7.06003097904411 ], [ -73.119245857672965, 7.060038400361559 ], [ -73.119231545132166, 7.059997583115584 ], [ -73.119122875840915, 7.059630757995905 ], [ -73.119034880219729, 7.059330724733277 ], [ -73.118976569868323, 7.059126108409293 ], [ -73.118850407471697, 7.058682949738698 ], [ -73.118816481449059, 7.058559967906667 ], [ -73.118793157308517, 7.058480983885233 ], [ -73.118784675802871, 7.058458984979938 ], [ -73.11876824288565, 7.058436455980532 ], [ -73.118750219686135, 7.058419492969217 ], [ -73.118734051815977, 7.058405445475477 ], [ -73.11871364319299, 7.058398819299177 ], [ -73.118686078299604, 7.05839775911097 ], [ -73.118668055100073, 7.058401999863799 ], [ -73.118635189265646, 7.058422673533839 ], [ -73.118612395219202, 7.058452358803639 ], [ -73.118599142866614, 7.058465081062125 ], [ -73.118581119667084, 7.058471442191369 ], [ -73.118501605551558, 7.058482044073439 ], [ -73.118428982659367, 7.05849688670834 ], [ -73.118286917439605, 7.05853399329559 ], [ -73.118122058173384, 7.058581701764913 ], [ -73.117982643424142, 7.058620398634474 ], [ -73.117823615193061, 7.058666516821486 ], [ -73.117688706243698, 7.058704948643997 ], [ -73.117183261515947, 7.058854965275311 ], [ -73.116696635128861, 7.059008692565349 ], [ -73.116469754852531, 7.05907972517523 ], [ -73.116289522857315, 7.059133794773795 ], [ -73.116161240084239, 7.059166660608218 ], [ -73.116128904343952, 7.059176732396185 ], [ -73.116116712179561, 7.059186804184153 ], [ -73.11611565199135, 7.059198466254433 ], [ -73.116119362650082, 7.059208538042401 ], [ -73.116141626602428, 7.059220200112679 ], [ -73.116173432248644, 7.059236633029891 ], [ -73.11619569620099, 7.059261017358656 ], [ -73.116204177706649, 7.059286991969731 ], [ -73.116209478647676, 7.059298123945907 ], [ -73.116222731000263, 7.059306605451564 ], [ -73.116234923164654, 7.059305545263356 ], [ -73.116247115329031, 7.059296003569492 ], [ -73.116266198716758, 7.059271619240727 ], [ -73.116292173327835, 7.059245114535548 ], [ -73.116336171138443, 7.059215959359851 ], [ -73.116372747631587, 7.059202176913158 ], [ -73.116531245768556, 7.059142806373557 ], [ -73.116608109413576, 7.059117361856584 ], [ -73.116937297851905, 7.059017174071007 ], [ -73.117238921396847, 7.058931298826226 ], [ -73.117421273768471, 7.058878289415868 ], [ -73.11761051736346, 7.058826340193717 ], [ -73.117979992953664, 7.058724562125828 ], [ -73.118127889208552, 7.058681624503438 ], [ -73.118234968217479, 7.05865087904543 ], [ -73.118322433744567, 7.058628615093078 ], [ -73.118353179202572, 7.058618013211007 ], [ -73.118404598330613, 7.058615892834593 ], [ -73.118459728117386, 7.058611121987661 ], [ -73.118511147245442, 7.058615362740489 ], [ -73.118566277032215, 7.058625434528457 ], [ -73.118656923123922, 7.058643457727979 ], [ -73.118684488017308, 7.058653529515947 ], [ -73.118709402440174, 7.058668372150848 ], [ -73.118740677992292, 7.058726152408138 ], [ -73.11877354382672, 7.058810967464713 ], [ -73.11884192596608, 7.05903996811746 ], [ -73.118950065163233, 7.059400962202002 ], [ -73.119054493701626, 7.059739162240088 ], [ -73.119140368946418, 7.060038135314509 ], [ -73.119177475533661, 7.060174899593234 ], [ -73.119260170213849, 7.060472812479447 ], [ -73.119280843883885, 7.060552856689088 ], [ -73.119306288400836, 7.060639262027974 ], [ -73.119308938871342, 7.060665766733153 ], [ -73.119305758306737, 7.061053265522871 ], [ -73.119305228212625, 7.06136973170271 ], [ -73.119299397177485, 7.0614126693251 ], [ -73.119288265201305, 7.061455606947491 ], [ -73.11926176049613, 7.061502255228606 ], [ -73.119222533532465, 7.06155155398024 ], [ -73.119181716286491, 7.061579648967729 ], [ -73.119128176782027, 7.0615754082149 ], [ -73.119070396524734, 7.061555794733067 ], [ -73.118932041963703, 7.061506495981434 ], [ -73.118741738180518, 7.061441824500798 ], [ -73.118422091436059, 7.06133421539777 ], [ -73.118145912408096, 7.061243039211954 ], [ -73.117994305494463, 7.061193210366216 ], [ -73.117881925544509, 7.061156633873069 ], [ -73.117763184465304, 7.061121647662233 ], [ -73.117669887903077, 7.061096733239364 ], [ -73.117571820493907, 7.061076589663428 ], [ -73.117429755274145, 7.061052205334664 ], [ -73.117325326735738, 7.061036302511556 ], [ -73.117217187538614, 7.061023050158966 ], [ -73.117125481258697, 7.061013508465102 ], [ -73.117049147707775, 7.061006087147652 ], [ -73.116904962111605, 7.060998665830202 ], [ -73.116711477763801, 7.060987003759924 ], [ -73.116618711295672, 7.060981172724785 ], [ -73.116489368334399, 7.060982232912992 ], [ -73.116341472079498, 7.060983293101198 ], [ -73.116041438816865, 7.060990714418648 ], [ -73.115938070466655, 7.060994955171477 ], [ -73.115653409933032, 7.061014038559206 ], [ -73.115529367912814, 7.061022520064863 ], [ -73.115267501425635, 7.061041603452592 ], [ -73.115153531193371, 7.061053265522871 ], [ -73.115019417385156, 7.061067047969565 ], [ -73.11483494463711, 7.061086661451397 ], [ -73.11476762268596, 7.061092492486536 ], [ -73.114692349323235, 7.061095142957053 ], [ -73.114532260903957, 7.061104154556814 ], [ -73.114451686600205, 7.061107335121435 ], [ -73.114365281261314, 7.061114226344781 ], [ -73.114227986888494, 7.061123237944543 ], [ -73.11408221101, 7.061132249544303 ], [ -73.11401223858833, 7.061138080579442 ], [ -73.113936435131521, 7.061140200955857 ], [ -73.113799140758687, 7.061143911614582 ], [ -73.113685170526423, 7.061149742649722 ], [ -73.11356165860029, 7.061155043590758 ], [ -73.11346359119112, 7.061159284343586 ], [ -73.113322586159569, 7.061166175566933 ], [ -73.113226639126822, 7.061170416319763 ], [ -73.11308033315423, 7.061175717260799 ], [ -73.112906462288279, 7.061184198766455 ], [ -73.112701315870183, 7.061197451119044 ], [ -73.112533276039358, 7.06120699281291 ], [ -73.112384319596231, 7.061216534506773 ], [ -73.112199846848185, 7.061227136388845 ], [ -73.112086936804118, 7.061234027612191 ], [ -73.111976677230587, 7.061238268365021 ], [ -73.111896102926849, 7.061243039211953 ], [ -73.111818179093618, 7.061251520717611 ], [ -73.111662331427169, 7.061266363352511 ], [ -73.111567444582619, 7.061275905046376 ], [ -73.111417427951309, 7.061290217587172 ], [ -73.111339504118078, 7.061294988434105 ], [ -73.111150260523104, 7.061305060222073 ], [ -73.111012966150284, 7.061309831069004 ], [ -73.110828493402224, 7.061319902856972 ], [ -73.110681127241435, 7.061328914456734 ], [ -73.110522629104466, 7.061336335774183 ], [ -73.11041236953092, 7.061344287185736 ], [ -73.110279846005028, 7.061355949256015 ], [ -73.110158454455302, 7.061369201608604 ], [ -73.110099614009798, 7.061376622926055 ], [ -73.110032822152746, 7.061390405372748 ], [ -73.109919382014581, 7.061424331395378 ], [ -73.109781557547649, 7.061463028264939 ], [ -73.109642142798407, 7.061504905699122 ], [ -73.109442827415464, 7.061570637367966 ], [ -73.109274257490526, 7.061620466213703 ], [ -73.109156576599531, 7.061665524212508 ], [ -73.10895938159301, 7.061736026728285 ], [ -73.108808834867588, 7.061792746797368 ], [ -73.108574533273782, 7.061876501665733 ], [ -73.108329099703823, 7.061966087569239 ], [ -73.108072004063587, 7.062060444319678 ], [ -73.107910855456097, 7.062124585706211 ], [ -73.107661711227436, 7.062222123021269 ], [ -73.107515935348943, 7.062278843090354 ], [ -73.107285344413881, 7.062369489182067 ], [ -73.107211786383289, 7.062397213668544 ], [ -73.107207950674507, 7.062399770807731 ], [ -73.107200529357058, 7.06241302316032 ], [ -73.107198408980651, 7.062425745418806 ], [ -73.107202119639368, 7.062436877394981 ], [ -73.107211661333238, 7.062440588053707 ], [ -73.107226503968135, 7.062446419088846 ], [ -73.107344184859386, 7.062400234640082 ], [ -73.107578486453178, 7.062307998266058 ], [ -73.107891241974301, 7.062188196998648 ], [ -73.108073594345939, 7.062116104200561 ], [ -73.108267608787855, 7.062046131778888 ], [ -73.108416035136855, 7.061993122368529 ], [ -73.108801943644266, 7.061853177525183 ], [ -73.108976874698442, 7.061787445856338 ], [ -73.109157106693658, 7.061725954940323 ], [ -73.109691441550069, 7.06155526463897 ], [ -73.109970271048553, 7.061477870899846 ], [ -73.110094313068799, 7.06144288468901 ], [ -73.110336035980026, 7.06140895866638 ], [ -73.110587300585124, 7.061394116031479 ], [ -73.110776014085999, 7.061385634525823 ], [ -73.111000773985921, 7.061372912267337 ], [ -73.111234015391503, 7.061360190008851 ], [ -73.111395163998992, 7.061353828879608 ], [ -73.111483159620192, 7.061352768691401 ], [ -73.111653849921538, 7.061334745491879 ], [ -73.111857406057325, 7.06131566210415 ], [ -73.112010073159155, 7.061305060222079 ], [ -73.11211503179166, 7.061297638904628 ], [ -73.11242566693636, 7.061278555516899 ], [ -73.112610139684406, 7.061265833258413 ], [ -73.112911233135236, 7.061248870247098 ], [ -73.113056478919631, 7.061243569306063 ], [ -73.113322586159626, 7.061226606294748 ], [ -73.113557947941615, 7.061221305353712 ], [ -73.11375514294815, 7.061208583095226 ], [ -73.114043514140491, 7.061204342342398 ], [ -73.114567247114834, 7.061162995002318 ], [ -73.114939373175531, 7.061142851426382 ], [ -73.115184276651391, 7.061113166156582 ], [ -73.115466286714508, 7.061093022580645 ], [ -73.115685745673403, 7.06107605956933 ], [ -73.115952913101594, 7.061060156746222 ], [ -73.116184034130754, 7.061048494675942 ], [ -73.116347303114665, 7.061047434487736 ], [ -73.116463923817449, 7.061047434487736 ], [ -73.116810605361195, 7.061051675240566 ], [ -73.117095795988917, 7.06106863825188 ], [ -73.11723892139689, 7.061085601263194 ], [ -73.117594084446281, 7.061146031991002 ], [ -73.117752052489152, 7.061187379331082 ], [ -73.118053145939996, 7.061278555516898 ], [ -73.118618226254412, 7.061459847700323 ], [ -73.119137718475926, 7.061635838942713 ], [ -73.119178005627802, 7.061625237060642 ], [ -73.119220413156086, 7.06159237122622 ], [ -73.119266001248988, 7.061547843321518 ], [ -73.119311589341905, 7.061475750523431 ], [ -73.119330672729632, 7.061410018854587 ], [ -73.119331732917857, 7.061181018201839 ], [ -73.119331732917857, 7.060972161125027 ], [ -73.119333853294265, 7.060806771764709 ], [ -73.119334913482476, 7.060655164851084 ], [ -73.119323251412197, 7.060612757322797 ], [ -73.11927660313107, 7.060452668903516 ], [ -73.119196028827332, 7.060154756017303 ], [ -73.11911545452358, 7.059858963507502 ], [ -73.119059264548611, 7.059668129630213 ], [ -73.118978690244859, 7.059397781637385 ], [ -73.118936282716575, 7.059259957170453 ], [ -73.118793157308616, 7.058795594735715 ], [ -73.118767712791637, 7.058726682502249 ], [ -73.118723184886932, 7.058645048010298 ], [ -73.118658513406302, 7.058610061799461 ], [ -73.118517508374751, 7.058589918223525 ], [ -73.118439054447407, 7.05858461728249 ], [ -73.118343637508772, 7.058587797847111 ], [ -73.118229137182396, 7.058624904434362 ], [ -73.117920622414104, 7.058711839867349 ], [ -73.117546375976985, 7.05881255774703 ], [ -73.117076712601204, 7.058949322025755 ], [ -73.116829688748936, 7.059022475012049 ], [ -73.116494669275468, 7.059128493832766 ], [ -73.116389710642963, 7.05916454023181 ], [ -73.116301715021763, 7.05920164681906 ], [ -73.116249765799623, 7.059247234911968 ], [ -73.116237573635232, 7.059259427076351 ], [ -73.116229622223685, 7.059259957170455 ], [ -73.116222200906236, 7.059251475664797 ], [ -73.116204707800804, 7.059225501053722 ], [ -73.11618350403667, 7.059209598230614 ], [ -73.116177142907432, 7.05920164681906 ], [ -73.11617767300153, 7.0591926352193 ], [ -73.116206828177226, 7.059182563431332 ], [ -73.116487778052118, 7.05910251922169 ], [ -73.116610759884153, 7.059062232069818 ], [ -73.116834459595864, 7.058992789742248 ], [ -73.11696009189842, 7.058950912308066 ], [ -73.117047027331409, 7.058927058073404 ], [ -73.11740219038083, 7.058815208217548 ], [ -73.11765451517411, 7.058741525137149 ], [ -73.118009678223515, 7.058637626692848 ], [ -73.118371202402159, 7.058536908813166 ], [ -73.118458667929247, 7.058510404107987 ], [ -73.118497364798813, 7.058504042978744 ], [ -73.118575818726143, 7.058493441096672 ], [ -73.118609214654668, 7.058484429496912 ], [ -73.118626707760086, 7.058472767426633 ], [ -73.118642080489082, 7.058445202533247 ], [ -73.118659043500386, 7.058431950180657 ], [ -73.118679187076324, 7.058425058957311 ], [ -73.118710992722541, 7.058422938580896 ], [ -73.118731666392577, 7.058427709427828 ], [ -73.118749159497938, 7.058442552062728 ], [ -73.118763472038793, 7.058467996579701 ], [ -73.118776724391381, 7.058501392508227 ], [ -73.118800048531938, 7.058580376529661 ], [ -73.118844576436643, 7.058735694102011 ], [ -73.118868430671313, 7.058810437370616 ], [ -73.119233159605713, 7.060078849403564 ], [ -73.119407203628924, 7.060671823512942 ] ] } }
]
}
