{
"type": "FeatureCollection",
"name": "10k",
"crs": { "type": "name", "properties": { "name": "urn:ogc:def:crs:OGC:1.3:CRS84" } },
"features": [
{ "type": "Feature", "properties": { "sequence": 1000.0, "angle": 344.51575854153072, "name": "Dist", "label": "1 K", "path_l": "assets/dist_mark.png", "path_d": "assets/dist_mark.png" }, "geometry": { "type": "Point", "coordinates": [ -73.119226685102319, 7.060352180268356 ] } },
{ "type": "Feature", "properties": { "sequence": 2000.0, "angle": 84.558411105949205, "name": "Dist", "label": "2 K", "path_l": "assets/dist_mark.png", "path_d": "assets/dist_mark.png" }, "geometry": { "type": "Point", "coordinates": [ -73.111502212440527, 7.061282128613666 ] } },
{ "type": "Feature", "properties": { "sequence": 3000.0, "angle": 82.743718157980879, "name": "Dist", "label": "3 K", "path_l": "assets/dist_mark.png", "path_d": "assets/dist_mark.png" }, "geometry": { "type": "Point", "coordinates": [ -73.102786749646128, 7.063500771332185 ] } },
{ "type": "Feature", "properties": { "sequence": 4000.0, "angle": 126.61744644348417, "name": "Dist", "label": "4 k", "path_l": "assets/dist_mark.png", "path_d": "assets/dist_mark.png" }, "geometry": { "type": "Point", "coordinates": [ -73.094104254956406, 7.062588147772623 ] } },
{ "type": "Feature", "properties": { "sequence": 5000.0, "angle": 138.05187425526145, "name": "Dist", "label": "5 K", "path_l": "assets/waterdist_mark.png", "path_d": "assets/waterdist_mark.png" }, "geometry": { "type": "Point", "coordinates": [ -73.088377662428314, 7.057996366802285 ] } },
{ "type": "Feature", "properties": { "sequence": 6000.0, "angle": 301.91702612552001, "name": "Dist", "label": "6 K", "path_l": "assets/dist_mark.png", "path_d": "assets/dist_mark.png" }, "geometry": { "type": "Point", "coordinates": [ -73.094916529572131, 7.06323655879166 ] } },
{ "type": "Feature", "properties": { "sequence": 7000.0, "angle": 262.6058224321265, "name": "Dist", "label": "7 K", "path_l": "assets/dist_mark.png", "path_d": "assets/dist_mark.png" }, "geometry": { "type": "Point", "coordinates": [ -73.103787763528473, 7.063437445534722 ] } },
{ "type": "Feature", "properties": { "sequence": 8000.0, "angle": 266.06471914297595, "name": "Dist", "label": "8 K", "path_l": "assets/dist_mark.png", "path_d": "assets/dist_mark.png" }, "geometry": { "type": "Point", "coordinates": [ -73.112511402808792, 7.061272642707262 ] } },
{ "type": "Feature", "properties": { "sequence": 9000.0, "angle": 163.43409201645085, "name": "Dist", "label": "9 K", "path_l": "assets/dist_mark.png", "path_d": "assets/dist_mark.png" }, "geometry": { "type": "Point", "coordinates": [ -73.118988806021164, 7.0594317227476 ] } },
{ "type": "Feature", "properties": { "sequence": 0.0, "angle": null, "name": "Salida", "label": "Salida", "path_l": "assets/salida_mark.png", "path_d": "assets/salida_mark.png" }, "geometry": { "type": "Point", "coordinates": [ -73.11927660313097, 7.060030979044112 ] } },
{ "type": "Feature", "properties": { "sequence": 10000.0, "angle": null, "name": "Llegada", "label": "Llegada", "path_l": "assets/llegada_mark.png", "path_d": "assets/llegada_mark.png" }, "geometry": { "type": "Point", "coordinates": [ -73.119408596562607, 7.060671664030043 ] } },
{ "type": "Feature", "properties": { "sequence": 2500.0, "angle": null, "name": "Service", "label": null, "path_l": "assets/water_mark.png", "path_d": "assets/water_mark.png" }, "geometry": { "type": "Point", "coordinates": [ -73.107245385479189, 7.062384549957017 ] } },
{ "type": "Feature", "properties": { "sequence": 3500.0, "angle": null, "name": "Service", "label": null, "path_l": "assets/water_mark.png", "path_d": "assets/water_mark.png" }, "geometry": { "type": "Point", "coordinates": [ -73.098187339314123, 7.063685182747161 ] } },
{ "type": "Feature", "properties": { "sequence": 6500.0, "angle": null, "name": "Service", "label": null, "path_l": "assets/water_mark.png", "path_d": "assets/water_mark.png" }, "geometry": { "type": "Point", "coordinates": [ -73.098177595878099, 7.063721482414606 ] } },
{ "type": "Feature", "properties": { "sequence": 7500.0, "angle": null, "name": "Service", "label": null, "path_l": "assets/water_mark.png", "path_d": "assets/water_mark.png" }, "geometry": { "type": "Point", "coordinates": [ -73.107267182488343, 7.062429760603707 ] } }
]
}
