{
"type": "FeatureCollection",
"name": "21k",
"crs": { "type": "name", "properties": { "name": "urn:ogc:def:crs:OGC:1.3:CRS84" } },
"features": [
{ "type": "Feature", "properties": { "sequence": 1000.0, "angle": 344.51575854153072, "name": "Dist", "label": "1 K", "path_l": "assets/dist_mark.png", "path_d": "assets/dist_mark.png" }, "geometry": { "type": "Point", "coordinates": [ -73.119226685102319, 7.060352180268356 ] } },
{ "type": "Feature", "properties": { "sequence": 2000.0, "angle": 84.558411105949205, "name": "Dist", "label": "2 K", "path_l": "assets/dist_mark.png", "path_d": "assets/dist_mark.png" }, "geometry": { "type": "Point", "coordinates": [ -73.111502212440527, 7.061282128613666 ] } },
{ "type": "Feature", "properties": { "sequence": 3000.0, "angle": 82.743718157980879, "name": "Dist", "label": "3 K", "path_l": "assets/dist_mark.png", "path_d": "assets/dist_mark.png" }, "geometry": { "type": "Point", "coordinates": [ -73.102786749646128, 7.063500771332185 ] } },
{ "type": "Feature", "properties": { "sequence": 4000.0, "angle": 126.61744644348417, "name": "Dist", "label": "4 K", "path_l": "assets/dist_mark.png", "path_d": "assets/dist_mark.png" }, "geometry": { "type": "Point", "coordinates": [ -73.094104254956406, 7.062588147772623 ] } },
{ "type": "Feature", "properties": { "sequence": 5000.0, "angle": 213.09636002407456, "name": "Dist", "label": "5 K", "path_l": "assets/dist_mark.png", "path_d": "assets/waterdist_mark.png" }, "geometry": { "type": "Point", "coordinates": [ -73.08930572342021, 7.057871470805573 ] } },
{ "type": "Feature", "properties": { "sequence": 6000.0, "angle": 228.10604188259327, "name": "Dist", "label": "6 K", "path_l": "assets/dist_mark.png", "path_d": "assets/dist_mark.png" }, "geometry": { "type": "Point", "coordinates": [ -73.096155135034806, 7.053047169141592 ] } },
{ "type": "Feature", "properties": { "sequence": 7000.0, "angle": 232.38766440766463, "name": "Dist", "label": "7 K", "path_l": "assets/dist_mark.png", "path_d": "assets/dist_mark.png" }, "geometry": { "type": "Point", "coordinates": [ -73.103774341515702, 7.048275969492027 ] } },
{ "type": "Feature", "properties": { "sequence": 8000.0, "angle": 252.28186700661891, "name": "Dist", "label": "8 K", "path_l": "assets/dist_mark.png", "path_d": "assets/dist_mark.png" }, "geometry": { "type": "Point", "coordinates": [ -73.111086586749906, 7.044182252862887 ] } },
{ "type": "Feature", "properties": { "sequence": 9000.0, "angle": 227.24193694791262, "name": "Dist", "label": "9 K", "path_l": "assets/dist_mark.png", "path_d": "assets/dist_mark.png" }, "geometry": { "type": "Point", "coordinates": [ -73.117887625494618, 7.038708627111122 ] } },
{ "type": "Feature", "properties": { "sequence": 10000.0, "angle": 106.66823625597659, "name": "Dist", "label": "10 K", "path_l": "assets/dist_mark.png", "path_d": "assets/dist_mark.png" }, "geometry": { "type": "Point", "coordinates": [ -73.118517946956118, 7.0385048994771 ] } },
{ "type": "Feature", "properties": { "sequence": 11000.0, "angle": 257.1512065439511, "name": "Dist", "label": "11 K", "path_l": "assets/dist_mark.png", "path_d": "assets/waterdist_mark.png" }, "geometry": { "type": "Point", "coordinates": [ -73.124004449425556, 7.033035256415199 ] } },
{ "type": "Feature", "properties": { "sequence": 12000.0, "angle": 53.04972581660116, "name": "Dist", "label": "12 K", "path_l": "assets/dist_mark.png", "path_d": "assets/dist_mark.png" }, "geometry": { "type": "Point", "coordinates": [ -73.118731613930436, 7.037910022158102 ] } },
{ "type": "Feature", "properties": { "sequence": 13000.0, "angle": 66.762978412143724, "name": "Dist", "label": "13 K", "path_l": "assets/dist_mark.png", "path_d": "assets/dist_mark.png" }, "geometry": { "type": "Point", "coordinates": [ -73.112173539984951, 7.043776337130396 ] } },
{ "type": "Feature", "properties": { "sequence": 14000.0, "angle": 37.249896007229808, "name": "Dist", "label": "14 K", "path_l": "assets/dist_mark.png", "path_d": "assets/waterdist_mark.png" }, "geometry": { "type": "Point", "coordinates": [ -73.104564652172058, 7.047411052023459 ] } },
{ "type": "Feature", "properties": { "sequence": 15000.0, "angle": 68.622268752907289, "name": "Dist", "label": "15 K", "path_l": "assets/dist_mark.png", "path_d": "assets/dist_mark.png" }, "geometry": { "type": "Point", "coordinates": [ -73.097078554285233, 7.052324922306571 ] } },
{ "type": "Feature", "properties": { "sequence": 16000.0, "angle": 39.840416988859481, "name": "Dist", "label": "16 K", "path_l": "assets/dist_mark.png", "path_d": "assets/waterdist_mark.png" }, "geometry": { "type": "Point", "coordinates": [ -73.089891678849284, 7.056835987083334 ] } },
{ "type": "Feature", "properties": { "sequence": 17000.0, "angle": 305.37143592266528, "name": "Dist", "label": "17 K", "path_l": "assets/dist_mark.png", "path_d": "assets/dist_mark.png" }, "geometry": { "type": "Point", "coordinates": [ -73.093038949982216, 7.061904533011933 ] } },
{ "type": "Feature", "properties": { "sequence": 18000.0, "angle": 258.00744509581932, "name": "Dist", "label": "18 K", "path_l": "assets/dist_mark.png", "path_d": "assets/dist_mark.png" }, "geometry": { "type": "Point", "coordinates": [ -73.101509189072118, 7.063763967199739 ] } },
{ "type": "Feature", "properties": { "sequence": 19000.0, "angle": 262.01634604673632, "name": "Dist", "label": "19 K", "path_l": "assets/dist_mark.png", "path_d": "assets/waterdist_mark.png" }, "geometry": { "type": "Point", "coordinates": [ -73.110214261851851, 7.061426049788333 ] } },
{ "type": "Feature", "properties": { "sequence": 20000.0, "angle": 255.25699670391526, "name": "Dist", "label": "20 K", "path_l": "assets/dist_mark.png", "path_d": "assets/dist_mark.png" }, "geometry": { "type": "Point", "coordinates": [ -73.119174678952803, 7.061626112501584 ] } },
{ "type": "Feature", "properties": { "sequence": 0.0, "angle": null, "name": "Salida", "label": "Salida", "path_l": "assets/salida_mark.png", "path_d": "assets/salida_mark.png" }, "geometry": { "type": "Point", "coordinates": [ -73.11927660313097, 7.060030979044112 ] } },
{ "type": "Feature", "properties": { "sequence": 21000.0, "angle": null, "name": "Llegada", "label": "Llegada", "path_l": "assets/llegada_mark.png", "path_d": "assets/llegada_mark.png" }, "geometry": { "type": "Point", "coordinates": [ -73.118868430671313, 7.058810437370616 ] } },
{ "type": "Feature", "properties": { "sequence": 2500.0, "angle": null, "name": "Service", "label": null, "path_l": "assets/water_mark.png", "path_d": "assets/water_mark.png" }, "geometry": { "type": "Point", "coordinates": [ -73.107245385479189, 7.062384549957017 ] } },
{ "type": "Feature", "properties": { "sequence": 3500.0, "angle": null, "name": "Service", "label": null, "path_l": "assets/water_mark.png", "path_d": "assets/water_mark.png" }, "geometry": { "type": "Point", "coordinates": [ -73.098187339314123, 7.063685182747161 ] } },
{ "type": "Feature", "properties": { "sequence": 6500.0, "angle": null, "name": "Service", "label": null, "path_l": "assets/water_mark.png", "path_d": "assets/water_mark.png" }, "geometry": { "type": "Point", "coordinates": [ -73.099698637603453, 7.050819798853192 ] } },
{ "type": "Feature", "properties": { "sequence": 8500.0, "angle": null, "name": "Service", "label": null, "path_l": "assets/water_mark.png", "path_d": "assets/water_mark.png" }, "geometry": { "type": "Point", "coordinates": [ -73.114830703884365, 7.042206829858172 ] } },
{ "type": "Feature", "properties": { "sequence": 17500.0, "angle": null, "name": "Service", "label": null, "path_l": "assets/water_mark.png", "path_d": "assets/water_mark.png" }, "geometry": { "type": "Point", "coordinates": [ -73.098178127120804, 7.063721633016118 ] } }
]
}
