{
"type": "FeatureCollection",
"name": "5k",
"crs": { "type": "name", "properties": { "name": "urn:ogc:def:crs:OGC:1.3:CRS84" } },
"features": [
{ "type": "Feature", "properties": { "sequence": 1000.0, "angle": 344.51575854153072, "name": "Dist", "label": "1 K", "path_l": "assets/dist_mark.png", "path_d": "assets/dist_mark.png" }, "geometry": { "type": "Point", "coordinates": [ -73.119226685102319, 7.060352180268356 ] } },
{ "type": "Feature", "properties": { "sequence": 2000.0, "angle": 84.558411105949205, "name": "Dist", "label": "2 K", "path_l": "assets/dist_mark.png", "path_d": "assets/dist_mark.png" }, "geometry": { "type": "Point", "coordinates": [ -73.111502212440527, 7.061282128613666 ] } },
{ "type": "Feature", "properties": { "sequence": 3000.0, "angle": 263.98021039438493, "name": "Dist", "label": "3 K", "path_l": "assets/dist_mark.png", "path_d": "assets/dist_mark.png" }, "geometry": { "type": "Point", "coordinates": [ -73.11156594832012, 7.061344027035393 ] } },
{ "type": "Feature", "properties": { "sequence": 4000.0, "angle": 164.89475115406344, "name": "Dist", "label": "4 K", "path_l": "assets/dist_mark.png", "path_d": "assets/dist_mark.png" }, "geometry": { "type": "Point", "coordinates": [ -73.119246991057267, 7.06034318220475 ] } },
{ "type": "Feature", "properties": { "sequence": 5000.0, "angle": 343.67257200297001, "name": "Dist", "label": "5 K", "path_l": "assets/dist_mark.png", "path_d": "assets/waterdist_mark.png" }, "geometry": { "type": "Point", "coordinates": [ -73.119277266455498, 7.060229123147164 ] } },
{ "type": "Feature", "properties": { "sequence": 0.0, "angle": null, "name": "Salida", "label": "Salida", "path_l": "assets/salida_mark.png", "path_d": "assets/salida_mark.png" }, "geometry": { "type": "Point", "coordinates": [ -73.11927660313097, 7.060030979044112 ] } },
{ "type": "Feature", "properties": { "sequence": 5300.0, "angle": null, "name": "Llegada", "label": "llegada", "path_l": "assets/llegada_mark.png", "path_d": "assets/llegada_mark.png" }, "geometry": { "type": "Point", "coordinates": [ -73.119407203628924, 7.060671823512944 ] } },
{ "type": "Feature", "properties": { "sequence": 1500.0, "angle": null, "name": "Service", "label": null, "path_l": "assets/water_mark.png", "path_d": "assets/water_mark.png" }, "geometry": { "type": "Point", "coordinates": [ -73.115529367912814, 7.061022520064863 ] } },
{ "type": "Feature", "properties": { "sequence": 2500.0, "angle": null, "name": "Service", "label": null, "path_l": "assets/water_mark.png", "path_d": "assets/water_mark.png" }, "geometry": { "type": "Point", "coordinates": [ -73.107245385479189, 7.062384549957017 ] } },
{ "type": "Feature", "properties": { "sequence": 3500.0, "angle": null, "name": "Service", "label": null, "path_l": "assets/water_mark.png", "path_d": "assets/water_mark.png" }, "geometry": { "type": "Point", "coordinates": [ -73.115566656963438, 7.061085264493772 ] } }
]
}
